{"type":"Topology","arcs":[[[14015,16251],[-8,25],[30,-2],[6,-14],[-28,-9]],[[14701,16183],[-22,5],[-45,-6],[-41,36],[1,10],[-31,65],[-8,47],[17,54],[5,37],[50,64],[5,36],[31,6],[12,19],[13,64],[1,32],[-6,43],[-9,23],[-43,51],[-12,26],[-29,30],[-27,12],[-57,5],[-37,54],[-1,16],[-69,19],[-21,31],[9,12],[-16,26],[12,47],[13,3],[34,46],[14,56],[-9,43],[4,13],[-20,64],[2,22],[14,8],[22,36],[49,21],[54,4],[35,-4],[29,15],[5,18],[64,29],[14,37],[23,30],[43,-32],[7,-22],[50,8],[4,50],[32,25],[25,40],[34,38],[88,44],[9,37],[-14,2],[-15,32],[-26,22],[-20,36],[-17,17],[-53,32],[-30,38],[7,36],[19,39],[4,28],[55,-2],[30,14],[20,29],[37,-15],[45,-45],[24,-14],[20,-1],[14,-30],[61,-13],[19,-14],[32,-8],[-1,-21],[12,-7],[51,4],[15,8],[39,3],[4,11],[52,15],[32,0],[6,-50],[56,-13],[63,-25],[37,13],[48,24],[58,44],[57,60],[23,30],[7,57],[-4,30],[-30,52],[-29,39],[2,16],[21,43],[-2,20],[-26,35],[-2,24],[-16,37],[-1,17],[27,34],[17,37],[65,32],[31,0],[14,18],[23,-3],[51,30],[25,34],[31,96],[0,51],[-8,59],[4,18],[-3,55],[3,20],[-9,65],[27,20],[26,54],[23,23],[21,53],[6,77],[17,29],[3,70],[-7,62],[-15,68],[-24,79],[-34,78],[-41,80],[-50,85],[-19,54],[4,31],[30,32],[6,35],[24,22],[11,34],[-16,19],[-3,28],[11,26],[19,-17],[6,-19],[26,-13],[76,10],[36,14],[34,36],[1,32],[12,13],[37,13],[21,-12],[7,-26],[20,-18],[22,-9],[20,-41],[18,-14],[88,-48],[101,-109],[105,-98],[64,-55],[19,-1],[3,-19],[21,-12],[11,-38],[28,-23],[7,-37],[40,-32],[23,-44],[13,-4],[54,-70],[47,-41],[38,-23],[28,-28],[19,-9],[87,-88],[75,-47],[112,-62],[17,-17],[91,-47],[21,-32],[40,-26],[89,-39],[150,-55],[84,-26],[105,-28],[75,-16],[57,-8],[27,1],[48,-16],[42,-6],[39,7],[6,-23],[-2,-43],[29,-19],[10,-35],[56,-24],[51,-14],[90,-15],[62,-6],[50,-1],[71,6],[44,8],[29,17],[16,22],[27,11],[29,21],[16,31],[11,-1],[52,38],[2,13],[93,57],[7,9],[55,27],[29,50],[70,60],[6,19],[26,6],[4,-42],[15,-28],[-16,-22],[0,-17],[-16,-29],[-40,-40],[-16,-10],[-20,-45],[4,-20],[-19,-29],[-15,-7],[-43,-44],[-21,-30],[-10,-25],[-21,-31],[4,-27],[-15,-39],[-17,-12],[7,-54],[75,-100],[76,-24],[48,-10],[-17,-11],[-13,17],[-60,11],[2,-24],[16,-7],[4,-29],[16,-24],[18,-87],[13,-34],[39,-54],[48,-35],[25,-13],[72,-24],[34,42],[28,13],[28,27],[21,8],[24,26],[60,-8],[30,15],[47,-29],[-48,-27],[-34,-2],[-33,-16],[-33,1],[-24,-10],[-12,-24],[-24,-6],[-20,-61],[-14,-24],[-88,1],[-72,-8],[-21,-11],[-16,5],[-42,-13],[-40,-21],[-28,13],[-40,-16],[-10,-27],[5,-18],[-25,-19],[-1,-18],[-48,-15],[-4,-26],[-44,-18],[-40,8],[-39,-5],[-36,37],[13,23],[-44,9],[-22,-7],[-26,-25],[-21,-43],[51,-41],[-91,5],[-39,11],[-85,0],[-37,-11],[-31,4],[-64,22],[-3,17],[-83,17],[-59,-10],[-36,-10],[-63,-28],[-43,-14],[-66,-36],[-57,-36],[-225,-177],[-46,-42],[-46,-48],[-68,-78],[-38,-54],[-37,-61],[-26,-49],[6,-10],[-20,-39],[8,-45],[14,-10],[-11,-42],[-1,-40],[-11,-31],[1,-31],[-13,-4],[-30,-36],[-13,-35],[-2,-37],[-23,23],[-44,29],[-2,13],[-23,29],[-62,35],[-45,17],[-37,32],[-48,13],[-29,0],[-52,9],[-34,17],[-12,14],[-77,16],[-36,29],[-37,19],[-35,7],[-58,22],[-32,29],[-28,3],[-30,14],[-80,49],[-9,13],[-36,25],[-26,28],[-29,13],[-69,8],[-44,14],[-39,29],[-17,18],[-37,23],[-13,16],[-80,31],[-8,-8],[-35,17],[-37,7],[-85,0],[-75,-14],[-57,-19],[-105,-52],[-51,-32],[-63,-46],[-43,-12],[-68,-54],[-54,-56],[-9,-19],[-50,16],[6,25],[28,-17],[-1,27],[-39,7],[-24,12],[-11,47],[-22,32],[-25,8],[-36,28],[-13,1],[-5,26],[-16,20],[-54,33],[-49,-1],[-48,-17],[-38,19],[-38,-3],[-15,5],[-29,-20],[-36,-34],[-36,-44],[-24,-39],[-29,-60],[-15,-53],[-1,-39],[16,-33],[45,-17],[34,-3],[19,-20],[40,-22],[49,-44],[32,-16],[24,-4],[64,19],[25,-3],[18,11],[46,-19],[9,-24],[16,-13],[29,-40],[60,-35],[31,-35],[4,-15],[24,-26],[50,-22],[50,-5],[47,-26],[11,-24],[35,-22],[-27,-22],[-41,-1],[-28,-38],[-45,-22],[-46,-9],[-35,27],[-63,20],[-15,-1],[-52,14],[-32,-5],[-29,-27],[-10,23],[27,9],[3,15],[-22,23],[-40,6],[-27,-15],[-18,-58],[-34,-14],[-37,-25],[-48,-4],[-18,-15],[-7,-28],[-4,-71],[4,-31],[-18,-18],[-65,-14],[-67,-25],[-36,-65],[-13,-11],[-40,25]],[[14183,16911],[-22,-20],[-2,-44],[-20,-51],[-39,-21],[-20,10],[-8,40],[5,20],[-14,39],[25,35],[86,16],[21,-3],[-12,-21]],[[15578,19631],[-34,32],[-7,48],[49,40],[97,-39],[18,-29],[4,-32],[-36,-32],[-33,-11],[-18,2],[-40,21]],[[15445,19917],[21,15],[15,-27],[-9,-13],[0,-83],[-10,-22],[-15,1],[-17,26],[-21,55],[14,48],[22,0]],[[19643,18068],[9,-24],[-42,0],[-4,22],[37,2]],[[19849,18125],[6,-25],[-54,-20],[-15,24],[-29,31],[9,12],[44,14],[23,-13],[31,-7],[-15,-16]],[[19999,18231],[-41,-3],[2,17],[36,-1],[3,-13]],[[14518,15255],[9,61],[-8,54],[-19,31],[-42,-1],[-7,29],[35,28],[18,-1],[14,22],[20,13],[19,26],[11,31],[31,16],[27,6],[43,-24],[36,18],[28,21],[19,-4],[22,10],[16,20],[23,49],[24,94],[10,85],[-4,34],[-27,25],[29,27],[10,30],[-4,36],[15,37],[43,-23],[30,-36],[31,-13],[19,4],[25,18],[6,15],[44,1],[24,-9],[32,-37],[-11,-67],[21,-106],[3,-29],[15,-62],[13,-27],[39,-28],[36,1],[19,7],[50,47],[8,24],[-9,38],[18,48],[19,0],[31,-12],[37,-31],[13,-23],[39,-20],[18,-2],[33,-38],[39,7],[35,35],[19,32],[22,65],[4,57],[11,35],[15,13],[5,22],[-16,44],[-22,34],[-31,28],[-32,6],[-19,-29],[5,-12],[-26,-19],[-33,-12],[-14,-16],[-43,13],[-22,2],[-32,-24],[-24,2],[-34,-9],[-38,-16],[-18,-20],[-24,3],[-16,16],[0,44],[17,32],[-4,22],[14,24],[2,39],[15,16],[10,48],[22,39],[11,4],[27,38],[10,25],[-11,21],[23,8],[25,-12],[17,-21],[25,-13],[48,-2],[45,-22],[70,-68],[33,-19],[56,-15],[32,6],[59,26],[45,38],[2,-43],[-14,-20],[-32,-111],[-14,-79],[8,-49],[-10,-79],[1,-86],[9,-71],[26,-142],[17,-52],[29,-66],[18,-24],[27,-14],[35,14],[10,-19],[18,-8],[35,-40],[28,-19]],[[16007,15275],[-11,-12],[-33,-16],[-31,-8],[-11,-12],[0,-23],[-36,-24],[-21,5],[-30,21],[-33,0],[-77,-42],[-23,36],[-22,-4],[-5,-13],[-38,-10],[-25,-24],[-40,-5],[-62,-27],[9,-18],[-29,-8],[-46,-30],[-36,-1],[-21,26]],[[15386,15086],[-8,10],[19,74],[23,16],[0,14],[-20,57],[-33,-9],[-35,2],[-26,16],[16,65],[-30,-3],[-30,-19],[-2,-27],[-39,-6],[-39,-22],[-54,-22],[-18,13],[-37,11],[-27,-4],[1,-27],[-29,16],[-34,25],[-6,12],[-29,-3],[-14,30],[-18,-7],[-17,11],[-22,-8],[-22,-36],[-31,6],[-40,-4],[-27,-10],[-34,9],[-62,-4],[-25,28],[-34,-5],[-32,-26],[-24,-6],[-29,2]],[[15231,13885],[-8,40],[22,22],[13,26],[-5,23],[-40,9],[15,35],[-18,15],[21,25],[29,11],[-37,18],[5,24],[15,13],[-16,14],[-44,18],[0,23],[-21,6],[8,37],[-23,23],[3,14],[-22,7],[24,26],[-4,28],[34,28],[-2,19],[19,21],[3,24],[-8,17],[20,5],[24,31],[19,8],[13,37],[2,33],[-24,20],[-11,27],[14,3],[19,28],[24,20],[-5,11],[-47,17],[-4,42],[15,13],[25,2],[20,-17],[22,8],[-9,34],[-11,11],[-6,34],[6,81],[-9,26],[28,22],[-8,30],[13,22],[-19,18],[27,18],[11,28],[32,6],[11,17]],[[16007,15275],[33,-48],[43,-50],[3,-23],[35,-45],[14,-36],[-21,-17],[-3,-30],[23,-4],[25,-14],[13,-19],[-23,-8],[-20,-31],[7,-25],[15,-18],[23,-7],[18,-30],[31,-5],[18,-25],[3,-33],[-13,-2],[-4,-24],[13,-27],[13,-6],[3,-35],[14,-25],[-6,-15],[12,-29],[-17,-43],[-5,-24],[12,-13],[-16,-44],[-8,-50],[50,64],[10,-7],[-4,-31],[9,-37],[20,0],[13,-27],[-33,-15],[-9,-24],[-26,-18],[-31,-8],[6,-23],[14,-11],[48,41],[20,-12],[-17,-21],[4,-19],[-11,-10],[-42,-7],[-7,13],[-31,-35],[17,-27],[-36,-10],[1,-20],[33,15],[18,-2],[-5,-23],[-57,-4],[1,-17],[18,-5],[-23,-25],[12,-16],[22,7],[9,-20],[-19,-5],[-29,-21],[-5,-41],[-39,-3],[24,-19],[41,-24],[-33,-15],[-16,13],[-43,-1],[13,-26],[22,-15],[-28,-9],[30,-18],[-63,-1],[-49,-9],[-1,-21],[-21,-24],[23,-7],[-23,-20],[-7,22],[-19,15],[10,18],[-32,6],[-16,-12],[9,-22]],[[15964,13897],[-56,24],[-37,-5],[-26,7],[-3,-85],[-33,-30],[11,-20],[-12,-15],[-14,-43],[-15,-11],[-53,31],[-16,-5],[-24,11],[-2,-24],[-30,0],[-10,-29],[-36,-13],[-8,20],[-21,14],[-35,4],[-9,22],[-23,17],[23,8],[14,16],[-6,19],[-27,0],[-14,10],[-50,-9],[-14,6],[-27,-8],[-20,28],[-44,20],[-29,3],[-44,31],[-43,-6]],[[14809,12971],[8,29],[-11,20],[11,28],[47,-5],[26,4],[37,21],[-1,21],[30,45],[13,5],[11,24],[-8,30],[2,53],[20,11],[-3,18],[23,6],[9,15],[-8,23],[36,25],[10,19],[5,37],[25,9],[-11,38],[-20,7],[-17,43],[21,25],[-8,25],[-27,36],[6,14],[39,-14],[29,51],[-15,14],[25,55],[-28,20],[-4,39],[-51,43],[7,16]],[[15037,13821],[13,-15],[41,18],[30,-3],[22,8],[13,19],[18,2],[21,27],[36,8]],[[15964,13897],[11,-27],[5,-36],[-40,-21],[-17,-30],[11,-18],[-65,-38],[-7,-18],[21,-27],[24,-2],[-7,-30],[-25,11],[-9,-21],[-23,-5],[-28,-18],[-13,-24],[29,1],[45,-7],[-3,-25],[-33,-25],[-24,-5],[19,-18],[4,-17],[41,0],[11,-16],[-51,-20],[13,-48],[-31,-9],[7,-26],[34,-19],[1,-22],[22,-49],[-18,-42],[-9,23],[-17,12],[-28,36],[-33,3],[17,29],[-30,16],[-31,-12],[-8,26],[-84,-6],[-24,-6],[-48,-24],[-13,-15],[-23,1],[1,15],[-39,5],[-22,-12],[1,-13],[-19,-41],[30,8],[7,-25],[-47,-16],[-53,-79],[-31,-85],[-13,-87],[0,-40],[13,-63]],[[15365,12896],[-28,7],[-36,-11],[4,-23],[-9,-16],[7,-33],[-6,-17],[-35,0],[-30,10],[0,-23],[-25,6],[-16,-6],[-28,20],[-13,31],[12,19],[-4,30],[-24,11],[-28,-2],[-8,13],[-23,-6],[-14,8],[-45,-6],[-29,-8],[-16,17],[-7,32],[-45,10],[-20,-9],[-31,-3],[-28,7],[-31,17]],[[15894,13272],[15,9],[18,-10],[-12,-27],[-21,28]],[[14458,14035],[14,14],[17,44],[-11,22],[19,41],[-4,10],[18,28],[30,5],[26,44],[21,59],[20,87],[10,63],[6,82],[-4,62],[-11,26],[4,11],[-19,51],[-30,41],[-21,19],[-37,18],[-51,-2],[-38,-36],[-22,8],[-29,-5],[-21,18],[-2,23],[-18,12],[-17,72],[26,-13],[36,-7],[27,-17],[41,14],[23,16],[44,49],[35,63],[23,62],[-7,8],[18,38],[9,37],[9,69],[-11,31],[-28,15],[-35,38]],[[15037,13821],[-10,11],[-26,-5],[-37,23],[-10,24],[1,24],[-16,19],[-49,3],[-11,27],[-37,7],[-7,-17],[-41,20],[-30,-7],[-23,8],[1,22],[-43,-10],[-41,32],[-25,3],[-11,25],[1,19],[-47,-10],[-11,-16],[-40,11],[-67,1]],[[14297,12851],[-36,30],[-11,36],[12,15],[0,47],[13,11],[2,38],[30,18],[-17,19],[17,33],[-2,40],[-6,13],[26,35],[38,-13],[20,1],[67,34],[14,29],[20,13],[-1,16],[-20,22],[-50,37],[-23,-7],[-32,9],[-16,12],[-23,34],[9,12],[3,28],[-7,19],[7,23],[-24,10],[-44,4],[-8,10],[-31,5],[-40,24]],[[14184,13508],[8,21],[45,87],[76,58],[7,18],[33,23],[27,53],[28,91],[16,26],[32,88],[11,41],[-9,21]],[[14809,12971],[-7,-9],[6,-31],[-12,-20],[4,-35],[-6,-37],[31,-25],[-14,-9],[-38,-48],[-65,10],[-29,-22],[-22,4],[-13,19],[-42,9],[-44,-7],[-22,33],[2,9],[-26,22],[-6,-14],[-39,-4],[-20,15],[-45,-18],[-18,24],[-35,-11],[-10,10],[-2,4],[-3,1],[-7,10],[0,6],[-8,2],[-22,-8]],[[14052,11979],[-35,4],[-9,11],[-32,-1],[-31,12],[-24,-9],[-7,11]],[[13914,12007],[16,20],[2,26],[-8,23],[13,26],[-18,44],[-2,22],[15,44],[-7,19],[-23,26],[-20,-5],[-25,26],[8,23],[34,33],[3,39],[13,9],[4,27],[-34,38],[21,33],[31,-2],[58,15],[68,3],[6,39],[37,9],[16,-14],[18,9],[39,0],[21,-9],[20,24],[-17,10],[0,38],[-19,28],[1,36],[44,19],[23,21],[-3,16],[28,30],[1,13],[54,51],[17,7],[-18,21],[-4,6],[-1,3],[0,3],[-29,-5]],[[15365,12896],[2,-14],[23,-44],[22,-9],[4,-52],[15,-17],[3,-57],[9,-22],[1,-46],[6,-81],[10,-42],[-5,-16],[-36,10],[-31,-14],[-7,-14],[-48,-2],[3,-17],[59,-8],[23,2],[11,13],[25,-7],[2,-59],[-8,-21],[-4,-42],[-8,-32],[-1,-30],[-9,-26],[-3,-84],[-14,-20],[-8,-62],[8,-26],[-13,-23],[-44,-31],[-76,-22],[-22,-18],[-8,-33]],[[15246,11930],[-21,3],[-23,13],[-22,-3],[-10,10],[-47,17],[-28,3],[-24,38],[-18,-27],[24,-34],[-11,-12],[-37,-8],[-18,-30],[-43,-32],[-23,27],[-22,11],[-31,5],[-10,43],[-35,9],[-19,31],[-32,6]],[[14796,12000],[-19,9],[9,18],[-11,35],[7,24],[-42,2],[-5,35],[-18,4],[-30,34],[-30,14],[-31,6],[-35,14],[-53,5],[-40,-1],[-18,6],[-54,-19],[-14,-16],[4,-26],[-36,1],[-21,-17],[-36,-2],[-29,-11],[-10,-15],[-25,-8],[-21,-17],[-27,-8],[-73,-35],[-30,2],[-2,-15],[-54,-40]],[[14379,11215],[-9,-9],[-32,9],[-2,20],[-26,41],[-7,41]],[[14303,11317],[17,10],[17,-5],[80,32],[18,35],[-6,13],[13,19],[19,3],[33,-13],[2,32],[28,13],[16,17],[41,8],[30,-1],[18,13],[-2,14],[38,-6],[26,13],[12,-13],[25,1],[15,20],[0,32],[24,45],[15,4],[3,44],[-7,28],[4,25],[-12,22],[6,15],[-18,34],[11,12],[42,7],[1,24],[-18,13],[-7,33],[10,7],[0,36],[-12,21],[4,20],[-7,33],[14,23]],[[15246,11930],[9,-18],[-29,-19],[-18,-36],[-15,-38],[0,-21],[-11,-22],[0,-28],[-20,-17],[-33,-64],[-14,-35],[-4,-27],[-19,-32],[-2,-53],[10,-54],[-21,-17],[-3,-21],[-27,-26],[2,-65],[17,-70],[18,-46],[46,-97],[20,-22],[52,-95],[58,-84],[36,-30]],[[15298,10893],[-32,-3],[-63,41],[-13,14],[-17,33],[-16,11],[-48,10],[-20,35],[-32,26],[-28,14],[-22,18],[-21,-28],[-25,-2],[-34,-19],[-19,3],[-27,-9],[-35,-31],[-36,7],[-32,-17],[-26,6],[-48,-18],[-26,26],[-33,13],[-12,-7],[-47,31],[-20,-1],[-49,29],[-5,27],[-13,1],[-28,17],[-5,18],[-55,51],[-12,29],[-20,-3]],[[14303,11317],[-20,6]],[[14283,11323],[-5,23],[-24,22],[3,14],[-62,-3],[-30,17],[-37,-12],[-48,30],[-3,26],[-45,32],[-8,16],[14,25],[30,37],[20,15],[-15,26],[18,29],[0,24],[18,2],[19,28],[-15,21],[-33,-5],[-12,7],[-51,6],[-20,12],[-2,28],[8,32],[17,14],[12,35],[-17,18],[20,19],[3,19],[25,21],[-46,20],[5,22],[30,36]],[[13470,11117],[-20,6],[-8,18],[-15,1],[-26,15],[11,20],[-12,34],[14,22],[-11,22],[-28,2],[-6,28],[37,9],[-13,20],[11,8],[-28,41],[9,34],[33,12],[-3,101],[-34,15],[-46,-5],[-12,-14],[-29,10],[-15,-12],[-25,4],[-2,14],[-48,13],[-3,52],[6,30],[21,32],[-8,19],[8,19],[22,15],[4,20],[56,15],[8,14],[-12,24],[20,11],[130,32]],[[13456,11818],[15,1],[11,23],[37,-17],[41,15],[10,31],[43,28],[42,7],[-10,35],[13,22],[40,-2],[-2,27],[-11,30],[5,27],[52,2],[52,33],[4,36],[23,-10],[7,-20],[41,-33],[6,-28],[36,1],[3,-19]],[[14283,11323],[-39,-16],[-21,18],[-50,-15],[-62,-3],[-59,36],[-30,24],[-37,-16],[-41,13],[-26,-4],[-62,30],[-30,5],[-56,-82],[-6,-14],[3,-27],[-15,-22],[-23,5],[-50,-26],[-22,-16],[-29,2],[-44,-22],[-15,-28],[-32,-7],[-31,5],[-9,-23],[-27,-23]],[[13668,10995],[-28,-2],[-17,-12],[-39,26],[-28,-5],[-14,10],[-6,19],[-52,15]],[[13484,11046],[9,28],[-24,30],[1,13]],[[14379,11215],[6,-20],[27,-30],[-1,-37],[20,-40],[20,-20],[25,-37],[9,-27],[-9,-19],[-1,-44],[4,-13]],[[14479,10928],[-20,14],[-38,-4],[-11,14],[-17,-3],[-18,11],[-18,-6],[4,-22],[-50,11],[-37,2],[-25,-19],[-30,-2],[-36,-23],[-8,35],[-50,-10],[-29,-13],[-56,0],[-9,22],[-31,2],[-44,44],[-42,-2],[-17,9],[-17,-6],[-49,23],[-20,0],[-53,13],[-22,17],[-20,-12],[-39,-10],[-9,-18]],[[14462,10795],[12,15],[0,23],[18,5],[6,21],[-15,14],[1,20],[-17,21],[12,14]],[[15298,10893],[11,-3],[-2,-40],[-27,14],[-21,-2],[-48,-17],[-50,6],[-41,-15],[-76,-54],[-51,-46],[-41,-50],[-30,-53],[-15,-53],[0,-68],[17,-29],[-12,-33],[4,-30],[-10,-32],[-16,-21],[-22,0],[-20,-38],[-24,11],[-10,-16],[-24,4],[-22,-21],[-31,1],[-5,10],[-33,-10],[-14,5],[-25,-19],[-5,-20],[-21,-21],[-17,1],[-45,-26],[-19,-19],[-17,-42],[1,-25],[-17,-19],[-50,-14],[-32,0],[-18,8],[-7,27],[-54,23],[2,11],[35,-3],[28,16],[24,4],[-7,28],[-22,11],[8,12],[-10,21],[18,13],[-15,25],[12,15],[-17,24],[5,40],[36,20],[-2,32],[-15,16],[5,12],[-35,21],[10,35],[19,29],[32,-13],[20,26],[-8,31],[21,16],[23,2],[15,25],[34,10],[47,60],[22,-4],[20,46],[-22,7],[-87,79],[-20,-2],[-35,-22],[18,-14],[-36,-22],[-21,8],[1,13]],[[13862,9473],[-23,-29],[-14,30],[13,21],[24,-22]],[[13959,9641],[-6,-9],[-5,-56],[-17,8],[-9,23],[12,34],[25,0]],[[14056,10002],[30,-15],[8,-23],[6,-46],[-10,-18],[-36,5],[-32,17],[-7,76],[19,14],[22,-10]],[[13828,10825],[-22,18],[-29,4],[-42,25],[-33,44],[-19,56],[-15,23]],[[14462,10795],[-34,4],[-22,-3],[-18,-12],[-12,17],[-17,-11],[-6,-41],[11,-24],[23,6],[20,-30],[-28,-4]],[[14379,10697],[-17,9],[-45,5],[-24,15],[-6,18],[-48,29],[-36,8],[-39,17],[-9,-17],[-33,-5],[-10,-9],[35,-32],[-22,-15],[6,-36],[-24,7],[-25,21],[-17,23],[-31,18],[-77,17],[-26,-10],[-27,22],[-4,19],[-31,0],[-15,20],[-26,4]],[[14248,9133],[-37,4],[-1,22],[10,14],[24,-5],[11,-22],[-7,-13]],[[14197,9366],[-1,-34],[-29,-20],[-39,4],[-7,25],[17,25],[-1,13],[39,4],[21,-17]],[[14397,8461],[17,-12],[23,-4],[11,-17],[-32,-37],[-34,16],[-1,19],[-20,8],[-13,25],[8,24],[22,-1],[19,-21]],[[14360,10738],[-5,21],[13,7],[16,-29],[-24,1]],[[15697,669],[-21,-13],[-6,35],[36,19],[14,-26],[-23,-15]],[[16418,2470],[0,-35],[-28,25],[10,18],[18,-8]],[[16473,2825],[3,-23],[-9,-15],[-27,7],[24,48],[9,-17]],[[13811,10331],[-18,-1],[-51,9],[-2,19],[-35,28],[-11,44],[1,15],[25,24],[11,38],[-21,68],[-66,-3]],[[13644,10572],[10,35],[23,21],[29,12],[33,7],[14,17],[36,12],[24,25],[12,22],[4,41],[-13,45],[12,16]],[[14379,10697],[13,-20],[-37,-6],[-57,-26],[-32,-2],[-5,-18],[27,-5],[18,-12],[-10,-26],[-23,2],[-14,-21],[8,-12],[13,-46],[-16,-27],[27,-11],[15,-19],[41,-5],[-12,-46],[-28,-3],[-32,-26],[12,-36],[-46,-3],[4,32],[-17,61],[-23,25],[-2,25],[-113,25],[-85,-6],[-76,-19],[-36,-14],[-51,-36],[-10,-53],[6,-28],[-27,-10]],[[14349,10644],[-25,-12],[-9,15],[28,13],[6,-16]],[[13456,11818],[-7,26],[-16,7],[23,33],[-13,14],[11,26],[-15,14],[-45,16],[-2,19],[-21,2],[-10,23],[3,42],[-19,42],[-35,8],[-29,-9],[-31,-1],[-52,-23],[-13,-13],[-12,-34],[-18,-22],[-22,4],[-18,-13],[2,-23],[-9,-17],[-17,-7],[-48,7],[-15,-13],[-28,-9],[-40,6],[-29,-19],[-11,-25],[-30,5],[-26,16],[15,15],[-3,17],[12,29],[-34,18],[-25,-8],[-36,16],[-23,-9],[-16,6],[-11,-24],[14,-16],[-40,-52],[-9,-18],[-49,-30]],[[12659,11844],[-7,28],[-20,26],[1,46],[-17,19],[7,31],[-8,16],[-21,-1],[-44,34]],[[12550,12043],[56,14],[96,33],[14,9],[71,20],[79,50],[19,2],[63,53],[43,-12],[68,12],[29,22],[17,6],[60,47],[70,63],[41,22],[50,21],[38,49],[25,50],[32,42],[46,33],[34,47],[15,36],[30,103],[13,31],[37,41],[28,19],[54,29],[74,46],[44,24],[26,1],[58,18],[46,23],[49,34],[39,38],[32,38],[37,55],[-2,15],[18,34],[-6,12],[6,25],[2,82],[3,26],[46,88],[35,55],[-1,9]],[[13306,13293],[-11,-25],[0,-29],[-14,-58],[-35,-52],[-13,-29],[1,-30],[38,-19],[75,20],[4,-20],[-60,-110],[-3,-18],[-25,-26],[-37,-16],[-57,-46],[-48,-3],[-46,-22],[-30,7],[2,25],[41,6],[21,39],[-10,20],[23,30],[21,9],[10,27],[-30,25],[-27,-3],[-18,-35],[-16,18],[4,44],[-5,29],[12,13],[20,42],[16,12],[31,56],[21,10],[34,32],[33,14],[20,50],[35,22],[23,-9]],[[11830,11409],[-5,46],[16,7],[-9,42],[-14,28],[14,12],[7,38],[-7,24],[19,39],[-25,38],[-3,32],[25,30],[8,19],[-8,21],[-20,16],[42,24],[10,21],[-2,42],[10,15],[2,29],[19,23],[-5,20],[41,38],[23,8],[17,-11],[11,21],[15,-5],[28,5],[12,-7]],[[12051,12024],[-21,-19],[5,-14],[-40,-51],[18,-30],[68,-50],[30,-3],[50,-21],[54,8],[44,-8],[33,5],[14,18],[37,23],[22,69],[-8,17],[16,25],[53,26],[72,9],[13,11],[39,4]],[[12659,11844],[-10,-14],[-1,-43],[8,-18],[-7,-55],[1,-30],[-23,-7],[-32,-23],[-3,-23],[18,-18],[-32,-8],[-14,-20],[3,-27],[-19,-32],[-20,-6],[-19,-26]],[[12509,11494],[-24,-3],[-33,18],[-8,16],[-32,2],[-11,-12],[-43,11],[-13,29],[-29,-5],[-3,-13],[-38,-10],[3,33],[-33,3],[-19,-12],[-37,-12],[-45,17],[-42,-39],[-14,-29],[-14,1],[-25,-36],[3,-16],[-27,-18],[-16,-21],[-23,-12],[-14,3],[11,35],[-14,23],[-41,20],[-15,-15],[-45,2],[5,-13],[-14,-29],[-29,-3]],[[11363,11404],[28,28],[18,26],[39,12],[59,49],[56,68],[29,29],[61,72],[1,10],[34,34],[32,43],[52,91],[24,55],[13,50],[-5,40],[6,50],[-22,12],[-18,43],[-3,20],[9,22],[-2,30],[-49,11],[9,56],[21,22],[25,45],[-11,38],[44,43],[64,33],[27,4],[38,-10],[128,56],[18,22],[43,19],[30,0],[31,9],[50,23],[20,-7],[24,3],[21,-26],[-9,-14],[15,-20],[-8,-20],[-43,-1],[-35,-10],[-17,-39],[1,-16],[22,-44],[-15,-17],[-21,-9],[-59,5],[-46,-22],[-25,-57],[-35,-15],[-20,-17],[-12,15],[-24,4],[-15,22],[-52,-59],[-9,-22],[22,-3],[-7,-23],[-21,-2],[-6,-33],[23,-7],[35,17],[10,-17],[28,-19],[25,18],[17,32],[17,6],[11,-30],[-8,-35],[5,-73]],[[11830,11409],[19,-30],[30,-14],[-5,-14],[-38,-52],[-29,-19],[13,-18],[-23,-51]],[[11797,11211],[-40,-6],[-28,-12],[-28,29],[-23,9],[-10,19],[-37,23],[-41,-6],[-24,10],[-16,-18],[-21,0],[-26,32],[-16,-4],[-40,5],[-23,58],[-13,20],[-29,11],[-19,23]],[[12050,12204],[0,-27],[-31,-11],[-17,6],[-37,-20],[-24,42],[61,-3],[48,13]],[[10956,10531],[-43,-1],[-15,-11],[-50,22],[-47,1],[-19,9],[-24,-1],[-23,45],[-45,41],[16,19],[-23,29],[9,26],[22,9]],[[10714,10719],[28,-8],[-10,-41],[25,-15],[33,4],[50,41],[7,-29],[-18,-19],[24,-7],[23,8],[53,7],[12,35],[-53,15],[22,20],[17,1],[20,-26],[18,7],[7,-18],[39,4],[-8,16],[28,27],[-3,20],[-22,5],[16,25],[20,-25],[25,14],[12,-13],[35,18],[17,-4],[10,17],[-16,16],[9,25],[-20,31],[23,12],[33,29],[9,-10],[9,-51],[-12,-18],[18,-21],[20,4],[6,40],[17,21],[1,49],[-25,43],[-62,55],[-1,48],[-33,43],[6,14],[39,34],[22,64],[16,24],[18,10],[48,70],[-8,33],[42,3],[63,38]],[[11797,11211],[9,-17],[-25,-19],[-7,-48],[19,-5],[3,-32],[31,-7],[-4,-20],[23,-14],[18,-51],[-26,-13],[-11,-41],[-29,9],[-26,-1],[-12,-15],[-33,-1],[-17,7],[-35,-9],[-10,9],[-23,-19],[-40,9],[-12,-15],[-43,7],[-26,-4],[-46,19],[-42,-19],[-8,-22],[7,-18],[-30,-45],[-9,-23]],[[11393,10813],[-40,22],[-30,7],[-12,13],[-30,-6],[-13,-26],[11,-7],[26,-63],[-10,-11],[-46,-9],[-6,-41],[-19,11],[-12,-14],[-18,8],[-17,-5],[-18,-35],[-15,1],[-44,17],[-19,-37],[-1,-36],[-18,-12],[-2,-15],[-23,-8],[-7,13],[-37,4],[-4,-26],[-25,-11],[-8,-16]],[[13048,10800],[-21,25],[0,22],[-11,15],[48,43],[-42,39],[38,71],[14,9],[30,-24],[34,40],[40,64],[46,-12],[25,-19],[-8,-19],[8,-14],[31,-6],[13,21],[74,0],[13,-18],[0,-20],[12,-7],[31,5],[16,-6],[8,23],[19,14],[18,0]],[[13644,10572],[-36,-17],[-10,8],[-35,-15],[-19,2],[-58,-13],[-43,-5],[-8,33],[-28,5],[-25,-4],[-10,36],[-17,8],[-16,-6],[-23,-23],[3,-74],[-20,-16],[8,-28],[-6,-19],[15,-37],[-35,-51],[-26,11],[-25,0],[-11,16],[-17,3],[-11,43],[-16,22],[3,32],[-11,12],[-28,9],[-34,-21],[-23,11],[-6,44],[-16,7],[22,34],[1,22],[-13,21],[12,21],[1,71],[-13,10],[-10,71],[-12,5]],[[12723,10397],[-14,3],[-18,-9],[-28,12],[-39,3],[-16,11],[-42,-7],[-54,-25],[-10,19],[-25,22],[-1,15],[11,28]],[[12487,10469],[-1,19],[35,20],[-3,45],[30,18],[-15,30],[-19,15],[31,28],[2,30],[-21,22],[-28,10],[-4,33],[-27,5],[-21,22],[12,26],[15,14],[-8,13],[-33,22],[-10,33],[-53,46],[-20,1],[-7,22],[-48,0],[-8,13],[5,26],[21,2],[9,32],[12,14],[46,13],[20,-15],[15,4],[7,21],[18,22],[11,-1],[22,31],[-1,10],[40,22],[7,34],[13,15],[-4,17],[-31,10],[-18,20],[14,40],[20,10],[4,25],[-12,5],[1,23],[39,54],[17,10],[2,36],[-27,34],[-27,7],[0,17]],[[13048,10800],[-13,-12],[2,-22],[-18,-33],[-19,8],[-14,-23],[12,-11],[-18,-21],[1,-21],[15,-5],[-1,-32],[-32,-13],[14,-36],[15,-9],[-10,-27],[-22,-4],[-24,-25],[-22,9],[-30,-25],[-7,-18],[-22,0],[-22,-16],[-32,-8],[-9,-20],[-20,4],[-19,-37],[-30,-6]],[[11728,10325],[-23,12],[-26,2],[-26,41],[-20,11],[-24,46],[-24,-19],[-34,3],[-22,-20],[-21,1]],[[11508,10402],[-31,22],[8,8],[2,38],[18,23],[9,31],[-9,20],[28,18],[-28,27],[12,28],[-21,20],[-12,25],[13,15],[-16,19],[-53,10],[2,38],[-7,36],[-23,-3],[-7,36]],[[12487,10469],[-41,-18],[-44,-27],[-32,-13],[-7,12],[-24,0],[-3,17],[-35,0],[1,14],[-32,15],[-38,-4],[-11,-16],[-43,-15],[-20,8],[-9,20],[-17,-2],[-12,13],[-26,7],[-17,-9],[-15,27],[-12,36],[-50,31],[-5,30],[-18,-4],[-3,-19],[-34,-20],[-30,-1],[-45,-20],[-50,13],[-14,-12],[-26,-54],[-43,-54],[5,-39],[-10,-10],[1,-50]],[[12422,9896],[5,26],[-8,17],[-5,51],[14,11],[-5,23],[11,18],[33,10],[11,9],[31,-1],[9,21],[16,2],[21,17],[-1,11],[17,37],[13,0],[28,46],[-3,19],[31,39],[30,20],[-1,14],[23,13],[-4,19],[21,19],[-9,25],[15,34],[8,1]],[[13811,10331],[-3,-11],[-27,-29],[-2,-48],[22,-2],[-3,-35],[-12,-6],[20,-29],[19,0],[17,-31],[-14,-53],[-24,-8],[-23,-27],[2,-17],[-18,-35],[-45,-32],[-10,-31],[-31,-39],[-33,-22],[-5,-17],[-41,-14],[-18,-17],[-24,13],[-6,12],[-28,12],[1,32],[-28,17],[-2,29],[30,33],[-22,56],[18,25],[-13,36],[28,19],[-19,40],[-4,22],[18,49],[51,-7],[42,12],[-16,36],[-25,23],[-31,21],[-60,16],[-50,-2],[-29,-13],[-61,-7],[-13,-8],[-30,-55],[-25,-19],[7,-10],[26,1],[-22,-32],[-32,-17],[-50,-18],[-46,-24],[-26,-44],[9,-36],[-42,-62],[-37,-20],[-19,-17],[-24,-54],[2,-30],[21,-24],[-26,-5],[-90,36],[-75,20],[-66,6],[-58,-9],[-33,-9],[-32,-1],[-24,10],[-62,11],[-90,10],[-73,-6]],[[11811,10219],[-14,30],[-4,26],[-46,40],[-19,10]],[[12422,9896],[-43,-7],[-80,-18],[-138,-41],[-32,-12],[-41,0],[-48,-11],[-7,21],[25,48],[19,8],[17,-22],[15,-3],[21,18],[22,3],[31,19],[15,-2],[8,22],[45,30],[30,2],[1,35],[-11,7],[-6,30],[-42,-4],[-25,10],[-26,-11],[-5,-23],[-59,9],[-25,-13],[-11,10],[-30,-11],[-13,3],[-30,35],[-22,6],[-8,30],[-21,-6],[-14,-73],[32,-30],[11,-3],[8,-33],[-27,2],[-46,19],[-25,18],[-15,20],[12,29],[9,42],[-8,22],[-30,21],[6,71],[-7,5],[59,97],[-12,19],[-22,-12],[-19,4],[2,-30],[-28,1],[-3,-34],[-20,6]],[[11863,10245],[7,-18],[-24,-3],[-1,21],[18,0]],[[11163,9010],[-24,13],[-9,-13],[-23,9],[-15,20],[-20,14],[-12,30],[-30,18],[2,49]],[[11032,9150],[14,-11]],[[11046,9139],[20,8],[3,14],[-18,23]],[[11051,9184],[24,8]],[[11075,9192],[18,22],[34,-11],[14,36],[23,5],[-13,22],[5,11]],[[11156,9277],[17,25],[42,-2],[27,-7],[-9,37],[12,34],[-5,36],[11,18],[-15,39],[16,7],[-4,18],[18,21],[-32,46],[30,14],[-24,18],[-13,41],[-15,9],[18,25],[-1,11],[36,16],[64,3],[12,63],[-9,12],[-23,-12],[-23,40],[-62,0],[-28,19],[-3,19],[23,32],[-8,16],[18,23],[-26,58]],[[11200,9956],[-21,16],[3,22],[-10,11]],[[11172,10005],[43,12],[13,24],[29,40],[-30,3],[13,19],[25,-13],[42,3],[15,-15],[45,-11],[33,11],[66,33],[5,35],[20,9],[17,26],[7,46],[-5,18],[20,17],[-5,14],[11,39],[-11,6],[16,29],[-25,21],[-14,3],[6,28]],[[11811,10219],[-18,14],[-44,-15],[-39,-25],[-6,-35],[2,-48],[-14,-24],[-35,-50],[-30,-34],[-20,-38],[-7,-58],[22,-13],[-4,-46],[37,-18],[51,-13],[17,-28],[42,-13],[42,-29],[86,-30],[2,-23],[21,-8],[19,4],[7,-29],[-13,-23],[-30,-11],[-10,-16],[17,-20],[3,-45],[11,-19],[-24,-3],[-25,-20],[-18,-1],[-46,9],[0,16],[55,-6],[8,18],[-9,11],[-36,-13],[-31,4],[-27,10],[-24,-9],[-14,17],[-17,-24],[-59,-27],[-13,29],[-25,-10],[-42,-33],[-31,-20],[-21,-1],[-26,-14],[-12,3],[-20,-15],[-21,1],[-30,-12],[-23,-38],[14,-40],[-48,-7],[-30,-16],[36,-11],[1,-20],[31,-15],[-8,-15],[-1,-33],[-39,-4],[4,-17],[-27,-24],[-24,-9],[-29,-23],[-25,2],[-25,-30],[-27,-49],[-29,-77]],[[11172,10005],[-10,8],[15,20],[-19,5],[0,15],[-29,3],[-26,17],[-5,25],[-31,-18],[-28,19],[8,57],[-20,17],[-17,35],[2,12],[-16,24],[16,7],[18,97],[-8,3],[-13,56],[14,41],[-24,22],[-9,24],[-16,7],[-18,30]],[[10616,10242],[4,19],[20,9],[1,17],[-16,33],[-33,6],[-14,12],[-28,-7],[-2,19],[-15,14],[-36,1],[-22,-16],[-17,28],[-4,24],[-16,3],[3,21],[-8,18],[-41,4],[-35,-27],[-16,23],[-33,8],[-3,14],[-40,12],[-33,18],[-4,21],[5,48],[20,20],[38,-25],[49,20],[1,40],[-8,29],[2,36],[-6,18],[-36,-5],[-25,-18],[-29,-3],[-9,25],[-33,24],[-15,21],[9,32],[-5,34]],[[10186,10812],[47,-11],[34,15],[20,28],[37,0],[48,31],[-1,13],[53,10],[42,16],[30,5],[21,-13],[45,-61],[-12,-21],[-23,-4],[-12,-16],[-7,-27],[-26,-21],[-21,-29],[15,-4],[34,18],[-9,-29],[8,-14],[20,-2],[16,-16],[57,-13],[-16,33],[46,18],[32,17],[19,18],[21,-35],[10,1]],[[11200,9956],[-11,-4],[-13,-26],[-35,8],[-4,21],[-42,0],[-14,15],[-22,-41],[-23,-3],[-37,5],[-14,9],[-41,6],[-19,25],[-4,22]],[[10921,9993],[16,21],[-32,43],[-15,6],[-15,43],[-22,9],[0,15],[-32,13],[2,30],[-43,-17],[-9,-35],[-14,5],[-28,23],[-13,19],[-6,27],[-39,12],[-46,2],[-9,33]],[[10378,9559],[7,6],[98,23],[41,35],[43,42],[39,31],[14,48],[37,8],[22,35],[-30,3],[5,31],[24,47],[-22,14],[4,19],[-13,16]],[[10647,9917],[33,20],[11,31],[-18,38],[-19,24],[2,29],[19,38],[-18,18],[36,16],[-17,12],[-46,7],[-36,18],[6,12],[2,42],[14,20]],[[10921,9993],[-19,-6],[-8,-26],[4,-21],[-24,-18],[5,-23],[-13,-26],[-10,-42],[19,-3],[6,-15],[-20,-22],[4,-30],[19,-43],[-6,-47],[-11,-8],[9,-23],[-21,-15]],[[10855,9625],[-63,-7],[-56,-35],[-20,17],[-87,-25],[-41,0],[-40,-28],[-8,17],[-24,-2],[-44,-26],[-60,-14],[-19,1],[-15,36]],[[10492,9668],[13,24],[20,-16],[-33,-8]],[[9719,9940],[-4,21],[11,28],[-11,27],[-44,32],[-9,18],[13,30],[22,17],[-36,30],[20,22],[5,31],[-15,19],[14,16],[28,16],[4,30],[26,6],[15,53],[34,1],[4,36],[-24,7],[-1,26],[18,18]],[[9789,10424],[27,-11],[36,18],[33,27],[-1,28],[-11,17],[10,26],[-36,24],[7,42],[-33,17],[-2,29],[-22,40],[11,32],[-17,18],[2,15],[-32,26]],[[9761,10772],[71,13],[44,30],[29,8],[21,-13],[32,2],[11,-16],[28,18],[43,-6],[24,13],[42,-8],[18,10],[40,-25],[22,14]],[[10647,9917],[-31,-15],[-10,24],[-20,18],[-41,-20],[-45,-5],[-39,-16],[-6,-30],[-64,-8],[-53,-15],[-23,17],[-40,1],[-110,71],[-14,-13],[-56,52],[-43,13],[-16,-6],[-27,13],[-65,-14],[-13,-10],[-40,20],[-44,-13],[-32,1],[-15,-33],[-26,-5],[-19,14],[-20,-2],[-16,-16]],[[10153,9474],[-25,-20],[-21,1],[-35,-11],[-3,17],[-27,14],[9,16],[-32,10],[-11,21],[12,42],[34,4],[15,12],[20,46],[8,2],[28,55],[19,21],[24,8],[19,34],[16,16],[40,18],[42,50],[16,5],[20,-30],[-26,-29],[-3,-21],[-29,-32],[-20,-31],[-29,-34],[-5,-18],[-1,-43],[18,-15],[3,-18],[22,-19],[7,-29],[-46,-13],[-59,-29]],[[10501,9888],[-17,-14],[-13,21],[16,9],[14,-16]],[[10516,9899],[-2,15],[31,3],[2,-14],[-31,-4]],[[11051,9184],[-19,-8],[21,-21],[-7,-16]],[[11032,9150],[-3,14],[-33,16],[-12,-9],[-39,-10],[-28,17],[-33,0],[-32,-25],[-24,21],[-2,35],[17,13],[0,37],[-13,18],[-22,2],[3,19],[-16,22],[-28,12],[1,30],[25,14],[10,31],[27,9],[17,23],[-6,20],[28,18],[34,-15],[17,12],[-8,39],[-30,7],[-19,53],[3,26],[-11,26]],[[11156,9277],[-16,-17],[-26,-10],[-24,1],[-28,-29],[13,-30]],[[11163,9010],[-33,-49],[3,-10],[-32,-13],[4,-39],[9,-24],[-23,-1],[-10,-22],[-101,-52],[-13,-25],[10,-21],[-21,-1],[4,23],[-13,12],[-27,-7],[-24,13],[-20,-3],[-41,19],[-42,-1],[-57,17],[-20,23],[-31,-1],[-7,13],[-29,12],[-20,23],[8,24],[-12,23],[-43,14],[11,21],[18,-5],[23,21],[-16,22],[-37,14],[-5,14],[-46,22],[-28,-2],[-2,16],[-42,20],[-31,56],[-33,13],[-23,-6],[-8,44],[16,55],[49,13],[0,35],[-13,18],[-27,6],[-7,19],[32,26],[-1,18],[29,-4],[15,13],[-2,22],[-16,15],[-19,4],[4,21],[-20,10],[1,15],[-29,18],[-13,19],[0,22],[16,7]],[[8820,10253],[-25,20],[-51,-11],[-37,7]],[[8707,10269],[8,28],[-5,12],[15,29],[32,20],[-12,30],[-24,1],[0,14],[25,15],[110,31],[-16,49],[3,27],[25,23],[-10,12],[6,21],[-10,20],[-31,14],[-43,33],[-20,41],[17,19],[22,3]],[[8799,10711],[16,-45],[26,-22],[25,-10],[68,-13],[17,5],[21,34],[22,4],[25,15],[75,16],[70,-24],[71,-5],[39,0],[114,10],[23,11],[34,2],[48,-6],[96,13],[53,12],[35,13],[21,28],[54,10],[9,13]],[[9789,10424],[-12,10],[-17,-19],[-28,-11],[-12,-16],[-38,-5],[-15,12],[-33,-18],[-25,-2],[-21,-16],[-12,22],[9,31],[-23,10],[11,18],[-55,46],[-13,-8],[-54,9],[7,23],[-15,18],[-57,-18],[-5,-25],[-16,0],[-38,-13],[3,-19],[-19,-18],[-22,0],[-21,37],[-38,23],[-45,9],[-16,-7],[-24,16],[-45,8],[-17,-29],[-7,-53],[-12,-14],[-32,-1],[-10,-12],[15,-30],[-48,-20],[-24,-1],[-20,10],[-19,-14],[16,-45],[-28,-6],[-20,-13],[-15,6],[-16,-12],[-26,2],[2,-24],[-19,-12]],[[7472,9902],[12,-8],[30,2],[61,17],[32,17],[19,22],[-5,19],[25,7],[45,29],[9,22],[28,11],[39,50],[25,9],[-2,11],[18,23],[19,6],[4,14],[32,15],[35,26],[40,38],[28,4],[30,13],[19,20],[-1,14],[33,28],[22,11],[12,35],[15,18],[25,10],[15,17],[51,23],[24,21],[62,22],[23,28],[17,50],[-3,27],[-38,30],[49,17],[18,-9],[41,5],[-19,20],[59,14],[26,20],[74,11],[40,-2],[6,28],[49,-5],[52,55],[21,-5],[23,-30],[72,13],[58,1],[22,-13],[-64,-12]],[[8707,10269],[-12,9],[-32,-6],[-21,3],[-23,-12],[-29,27],[-44,-20],[-33,10],[-14,17],[-27,-8],[-29,-33],[-34,-52],[-21,-11],[-11,-31],[-56,-9],[-7,-16],[-22,-12],[11,-28],[33,-10],[7,-27],[-30,-3],[-7,-14],[-41,11],[-33,-26],[-36,-20],[-70,9],[-17,16],[-32,-35],[-22,16],[-34,-10],[-15,10],[-15,-22],[-17,19],[-30,8],[0,-21],[-18,-32],[-68,-31],[-11,-15],[27,-11],[-30,-46],[-8,-25],[11,-15],[-14,-31],[-25,-23],[-27,-7],[0,-29],[14,-29]],[[7795,9704],[-25,1],[-21,-16],[1,-14],[-22,-21],[20,-30],[-26,-29],[-21,-42],[-27,27],[-36,-23],[-46,-7],[-30,15],[-18,17],[3,15],[-13,26],[18,17],[9,31],[-70,-4],[-32,68],[3,14],[24,16],[-5,16],[16,20],[-3,31],[-18,14],[3,26],[-12,17],[5,13]],[[8626,11153],[17,-13],[-45,-8],[-7,28],[35,-7]],[[8698,11219],[5,-20],[-20,-8],[-26,-26],[1,33],[-13,24],[42,20],[11,-23]],[[8668,11256],[-9,-13],[-32,-9],[12,-26],[-5,-16],[-25,-2],[-14,25],[-25,-7],[15,-25],[-41,8],[7,19],[28,29],[22,-1],[0,19],[37,-6],[11,13],[19,-8]],[[8844,11436],[70,-48],[-5,-24],[4,-19],[-6,-22],[-30,-4],[3,-30],[-33,6],[-19,-6],[-37,-1],[3,13],[-45,30],[6,28],[-13,4],[16,45],[12,3],[20,26],[19,-1],[25,14],[10,-14]],[[9066,9618],[-33,6],[25,17],[8,-23]],[[8972,9715],[8,19],[-9,52],[-16,12],[-3,15],[-23,9],[-10,20],[3,25],[12,22],[-24,27],[-8,67],[11,38],[-36,34],[-32,41],[3,37],[-4,25],[21,30],[0,15],[-45,50]],[[9719,9940],[-5,10],[-31,2],[-9,-14],[-68,-64],[-13,-31],[-17,-2],[-30,-24],[-29,-8],[-26,5],[-10,21],[-43,4],[-16,-17],[45,4],[12,-11],[-10,-30],[-28,-20],[-31,-10],[-8,-28],[-14,-18],[1,-21],[-47,6],[-11,9],[-32,5],[-18,-10],[5,-22],[-29,7],[-18,23],[-47,7],[1,42],[-30,-14],[-57,-12],[-10,-23],[-27,-2],[-61,-25],[-28,12],[-8,24]],[[9451,9732],[13,7]],[[9464,9739],[-13,-7]],[[9737,9926],[-18,-3],[-40,9],[16,16],[15,-3],[27,-19]],[[8009,9379],[-5,3]],[[8004,9382],[5,-3]],[[8212,9431],[-30,-16],[24,-8],[-3,-19],[20,-13],[-12,-30],[-15,11],[-31,8],[-3,-11],[-31,-8],[-13,20],[36,25],[13,2],[-9,27],[8,22],[30,12],[16,-22]],[[8093,9416],[-26,-8],[-4,25],[30,-17]],[[8158,9493],[-4,-37],[-15,-18],[16,-26],[-24,-18],[-17,1],[1,31],[-18,10],[-1,16],[-29,25],[2,34],[26,-3],[21,-32],[30,9],[-31,26],[-7,22],[40,3],[14,-18],[-4,-25]],[[7946,9464],[-27,-6],[-10,18],[-28,10],[-11,-4],[-20,40],[6,9],[-33,59],[-26,9],[5,32],[-7,25],[10,25],[-10,23]],[[8972,9715],[-1,-31],[-12,-21],[-20,4],[-19,-7],[-1,-34],[-28,-17],[-15,14],[-36,2],[-17,22],[-2,24],[-32,-20],[-20,0],[-70,-27],[-29,6],[-10,-37],[-31,-14],[-25,-5],[-61,7],[-12,-9],[-31,0],[-40,-27],[-24,18],[-15,-7],[-14,-30],[-27,-1],[16,-21],[-10,-12],[-24,2],[-28,-7],[-17,-23],[-36,-7],[-30,16],[-42,-24],[-19,26],[-2,21],[-12,21],[4,14],[-22,32],[10,16],[-23,21],[-33,-4],[-36,10],[-66,-29],[-33,-43],[-41,-25],[-6,-22],[16,-23]],[[8034,9540],[0,-9],[-38,-35],[-27,-10],[-5,15],[20,35],[36,20],[14,-16]],[[8447,9413],[-25,-1],[0,17],[38,19],[18,-15],[-31,-20]],[[8389,9437],[-4,-13],[-63,14],[11,20],[52,-11],[4,-10]],[[8520,9480],[0,-10],[-32,-10],[-21,2],[-12,14],[39,36],[44,17],[-18,-49]],[[8706,9531],[-29,-20],[-29,5],[5,19],[19,19],[39,7],[7,-13],[-12,-17]],[[8758,9583],[12,-18],[-14,-18],[-2,-23],[-30,23],[-16,41],[9,13],[22,0],[19,-18]],[[8694,9574],[-19,0],[5,27],[15,-4],[-1,-23]],[[8872,9599],[-24,-12],[-11,13],[26,15],[9,-16]],[[8776,9619],[-24,-18],[-16,28],[38,20],[19,-16],[-17,-14]],[[6808,9186],[-31,30],[34,4],[10,-20],[-13,-14]],[[7946,9464],[-12,-21],[18,-28],[-4,-23],[-38,-7],[7,-40],[-2,-22],[8,-19],[-5,-34],[-22,-36],[-50,-6],[0,-64],[17,-13],[9,-22],[-16,-18],[-21,2],[4,39],[-37,17],[-3,11],[-56,5],[-44,36],[-17,-2],[-15,18],[-31,13],[-27,27],[-28,-15],[-1,-22],[-39,7],[10,17],[33,30],[-26,24],[-70,6],[-26,-5],[-23,-14],[-15,7],[-20,-22],[-22,2],[-39,-26],[-19,5],[-7,18],[-25,-8],[-38,-24],[-7,24],[-28,11],[-40,-41],[1,-14],[-27,-11],[-21,-19],[-22,-11],[-29,4],[-19,16],[-22,-5],[-23,16],[2,28],[-33,16],[-16,26],[-47,10],[-15,-2],[-26,-29],[-4,-18],[-52,-39],[-21,11],[-1,31],[7,25],[-5,40],[-25,12],[-17,27],[4,31],[21,-3],[29,33],[5,37],[-13,5],[5,23],[-47,45],[21,23],[-1,30],[8,15],[30,-8],[28,5],[29,15],[30,5],[-22,21],[-26,-2],[-18,8],[2,18],[16,8],[21,-19],[33,-5],[27,13],[32,-14],[14,3],[21,-36],[30,7],[14,-6],[57,14],[18,-9],[28,12],[10,22],[13,-5],[33,6],[20,29],[41,35],[-9,28],[11,15],[34,1],[13,19],[30,24],[0,26],[31,20],[5,22],[13,12],[31,-11],[36,25]],[[7100,9657],[-28,6],[-22,-24],[-20,9],[-2,17],[40,-1],[24,12],[8,-19]],[[7000,9974],[-8,34],[29,-21],[-21,-13]],[[7696,9055],[21,23],[14,-15],[-35,-8]],[[7615,9234],[-19,-28],[-10,11],[29,17]],[[7932,9089],[26,-26],[-38,2],[-23,24],[15,9],[20,-9]],[[7991,9207],[16,-26],[15,-5],[20,9],[10,16],[22,-2],[24,26],[26,-17],[-31,-16],[-36,-4],[-11,-15],[5,-28],[-26,10],[-16,14],[-26,8],[-26,-23],[-33,-3],[-9,-14],[-29,40],[-2,20],[32,34],[33,-6],[42,-18]],[[8009,9379],[-5,3]],[[9706,8848],[-16,10],[-42,-6],[-17,13],[-14,-4],[-15,24],[-24,22],[-5,17],[29,17],[-11,8],[3,25],[-42,11],[-51,-7],[2,37],[-11,22],[3,23],[-22,31],[0,17],[-32,-6],[-7,14],[-24,-2],[-16,-33],[-24,-7],[-33,13],[-30,37],[-18,-7],[-36,4],[-23,-5],[-17,13],[-23,-1],[-21,8],[-14,22]],[[9155,9158],[14,11],[9,21],[-10,16],[14,10],[0,17],[-14,28],[3,19]],[[9171,9280],[36,9],[6,20],[48,33],[30,-5],[2,17],[85,21],[19,-19],[42,-20],[75,45],[35,-2],[15,14],[5,28],[23,11],[19,-4],[56,11],[72,-10],[11,11],[24,-18],[29,-7],[12,11],[6,36]],[[9821,9462],[27,1],[21,14],[38,2],[25,10],[17,-12],[-3,-21],[32,-20],[15,0],[-32,-57],[2,-17],[-16,-42],[3,-45],[17,-15],[25,14],[26,-42],[21,-9],[8,-24],[-8,-21],[-34,-29],[-8,-20],[52,0],[-6,-13],[41,-4],[-67,-28],[-19,-12],[-24,-3],[-12,-12],[-22,-3],[-12,-29],[-19,-18],[-49,-30],[-49,-22],[-9,1],[-41,-28],[15,-10],[-29,-38],[-31,-1],[-10,-31]],[[9979,9443],[-30,13],[21,17],[10,-11],[-1,-19]],[[9171,9280],[-12,13],[-45,5],[-12,11]],[[9102,9309],[25,9],[18,123],[-12,23],[-44,31],[24,7],[9,-15],[38,5],[27,-6],[32,26],[22,35],[24,-1],[28,25],[-2,24],[32,6],[0,-29],[32,26],[-6,20],[37,12],[58,-32],[41,1],[27,-5],[38,27],[11,20],[20,-11],[0,-54],[23,14],[27,4],[12,-10],[21,6],[7,-25],[-16,-14],[8,-16],[43,-8],[35,-24],[37,2],[17,-29],[26,-14]],[[9204,9606],[-17,-10],[-12,8],[13,24],[22,-2],[-6,-20]],[[9248,9615],[-14,14],[21,13],[9,-14],[-16,-13]],[[9521,9705],[-32,3],[15,23],[14,2],[14,-19],[-11,-9]],[[9747,9787],[2,-42],[-12,-22],[6,-25],[-17,-15],[-16,30],[-37,-9],[-24,-49],[-5,57],[-33,8],[-37,-22],[-6,16],[29,36],[44,9],[23,15],[41,6],[9,9],[33,-2]],[[9464,9739],[-13,-7]],[[8296,8267],[-48,-12],[-23,32],[-51,3],[3,-16],[-34,-26],[-6,33],[18,0],[22,19],[-13,31],[-14,16],[-4,42],[6,11],[-16,20],[11,28],[-12,20],[-13,-8],[-15,24],[11,25],[34,-19],[20,20],[1,25],[23,9],[0,12],[-47,51],[37,21],[-31,12],[-24,-14],[-33,-6],[-35,16],[23,30],[-17,11],[-9,21],[15,9],[-9,21],[19,16],[-5,21],[-45,12],[-37,1],[-22,-25],[-22,-5],[-15,-15],[-46,-12],[-50,-44],[-5,24],[-30,7],[34,20],[25,-12],[14,11],[2,24],[19,6],[26,-6],[13,19],[22,3],[75,39],[55,32],[56,66],[21,14],[67,21],[62,47],[18,39],[17,14],[-8,26],[-3,43],[20,18],[-9,21],[9,28],[18,-3],[20,8],[12,34],[1,45],[26,13],[49,41],[50,8],[13,29],[-7,20],[25,7],[21,-7],[25,-47],[14,-3],[38,-81],[29,-32],[27,-13],[48,16],[38,7],[37,27],[28,3],[9,10],[31,-14],[46,10],[37,-6],[31,-14],[36,17],[17,24],[12,0],[28,29]],[[9155,9158],[-29,-9],[-26,7],[-12,-11],[-22,13],[-14,-3],[-12,-23],[-28,-20],[-79,4],[-8,-11],[-31,9],[-25,-18],[-36,15],[-13,-5],[-10,-30],[-32,-12],[-23,12],[-8,-24],[-22,-16],[3,-18],[-14,-25],[-22,-15],[-2,-26],[-36,-9],[-6,-26],[10,-13],[-19,-12],[-9,-19],[14,-13],[-3,-22],[-18,-11],[-19,-42],[-48,-14],[-81,6],[-15,6],[-31,-12],[13,-19],[-1,-21],[14,-24],[11,1],[5,-28],[20,-6],[14,-17],[-1,-27],[-35,-20],[-55,-17],[-18,-32],[3,-30],[-30,-7],[-13,-30],[-33,-32],[-34,35],[-28,-2],[15,-19],[13,-32],[14,-5],[5,-36],[-10,-13],[17,-18],[-1,-25],[13,-35],[-11,-28],[-20,-17]],[[8279,9248],[5,-20],[-44,-4],[-2,16],[19,22],[27,9],[-5,-23]],[[8668,9427],[-10,-24],[-38,-35],[-14,30],[18,13],[-2,39],[27,-3],[19,-20]],[[8709,9465],[-29,-16],[-23,1],[-16,29],[36,8],[14,-17],[18,-5]],[[8639,9509],[-6,-41],[-42,-5],[-36,-16],[-10,16],[15,17],[22,-2],[4,20],[-12,37],[26,12],[15,-6],[24,-32]],[[8705,9493],[-1,22],[13,14],[15,-23],[-27,-13]],[[8772,9501],[-12,17],[26,22],[7,-14],[-21,-25]],[[8221,8085],[-25,-2],[10,23],[15,-21]],[[9706,8848],[-17,-17],[-38,-62],[0,-12],[-25,-47],[-12,-66],[-10,-35],[-4,-40],[-39,45],[-21,-3],[-5,27],[-26,18],[-7,14],[-29,19],[-4,34],[-60,26],[-12,30],[-19,16],[-35,10],[-32,3],[-25,9],[-38,0],[-18,19],[-20,2],[-58,-7],[-48,-10],[-33,-22],[-107,-53],[-14,-25],[-24,-10],[-40,-1],[-18,-20],[-30,4],[-24,-13],[-7,-57],[-13,-11],[17,-33],[-9,-11],[7,-22],[-14,-8],[-3,-18],[-22,-13],[-34,-31],[-27,-53],[-18,-7],[-16,-26],[-5,-22],[-42,4],[-30,-27],[-14,-54],[2,-19],[12,-18],[-13,-46],[-22,3],[-10,-15],[8,-47],[32,-11],[16,-55],[-18,-5],[-23,9],[-4,17],[-25,23],[-24,11],[-40,2],[-22,-8],[-20,-26],[-23,-3],[-51,27],[-9,17],[-23,-3],[-8,-12],[-28,-3],[-15,22],[28,29],[0,26],[24,22],[23,9],[-10,30],[-35,-6],[-10,5]],[[6382,8339],[9,47],[-24,51],[-20,11],[-15,20]],[[6332,8468],[-3,37],[-11,23],[31,14],[-2,22],[35,8],[14,26],[29,4],[-8,15],[25,5],[19,33],[25,1],[5,22],[-1,51],[-6,19],[-20,7],[-36,-15],[-42,-30],[-20,25],[-15,-2],[-87,50],[-21,-8],[-40,10],[-19,-14],[-29,10],[-93,-7]],[[6062,8774],[7,24],[50,13],[40,26],[-16,27],[-37,18],[49,10],[11,15],[-4,15],[35,11],[10,12],[36,-53],[35,-15],[18,17],[33,-3],[40,17],[5,36],[25,10],[-30,23],[53,49],[8,32],[-21,19],[17,16],[19,36],[20,6],[15,29],[28,2],[25,-12],[33,5],[28,17],[-1,11],[34,24],[33,-6],[58,-1],[14,-10],[26,8],[40,-36],[26,16],[12,29],[24,19],[24,10],[15,-7],[1,-19],[-17,-18],[2,-31],[-9,-36],[-28,-11],[5,-27],[39,9],[-11,-26],[16,-22],[-14,-10],[17,-24],[16,-37],[51,-69],[21,8],[32,-9],[21,0]],[[7041,8911],[-11,-36],[15,-19],[-21,-27],[-3,-19],[-37,-6],[-12,6],[-44,0],[-15,10],[-55,-13],[-25,-18],[-14,-26],[-27,-11],[-9,-52],[-19,-12],[-10,-38],[14,-41],[-10,-28],[-26,-8],[2,-16],[28,-7],[-20,-17],[24,-16],[12,-18],[1,-20],[-22,-40],[-12,-5]],[[6745,8434],[-43,18],[-16,1],[-28,20],[-29,5],[-16,16],[-15,-11],[-6,-36],[-38,-9],[-31,7],[-15,-11],[3,-16],[-26,-8],[-34,-28],[17,-34],[-27,-10],[-59,1]],[[6378,9168],[0,17],[32,2],[-18,-24],[-14,5]],[[5849,8654],[35,-34],[11,41],[23,42],[-10,12],[-23,7],[-18,20],[-24,15],[19,32],[26,2],[-5,30],[57,27],[42,-19],[10,-21],[-12,-12],[3,-19],[20,-17],[24,-7],[34,6],[1,15]],[[6332,8468],[-58,5],[-2,14],[-30,27],[-15,4],[-9,-27],[-28,-18],[-34,-31],[-8,-17],[8,-26],[17,-15],[1,-14],[21,-44],[12,-2],[12,-22],[-17,-5]],[[6202,8297],[-46,5],[-40,11],[-87,48],[-16,29],[-37,16],[-12,29],[22,4],[-11,52],[-28,-7],[-23,4],[-21,13],[-31,8],[-9,24],[7,26],[-48,49],[15,39],[12,7]],[[5022,8115],[18,-22],[3,-39],[31,-25],[-11,-24],[-38,-7],[-17,18],[-31,-10],[0,-25],[20,-25],[-17,-15],[-18,4],[-13,26],[-42,-4],[-19,5],[-21,-15],[-9,12],[-28,7],[10,15],[24,-3],[24,39],[-14,27],[11,11],[-15,15],[9,51],[23,0],[13,-12],[8,-26],[50,21],[23,26],[26,-25]],[[5163,8099],[-7,15],[8,26],[16,-17],[-3,-18],[-14,-6]],[[5097,8149],[-38,-32],[-27,30],[3,32],[22,13],[32,-21],[8,-22]],[[5140,8179],[-26,-3],[-10,15],[-25,12],[23,13],[22,-10],[14,9],[2,-36]],[[5194,8247],[5,-47],[-38,12],[-21,31],[25,-5],[0,36],[18,-6],[11,-21]],[[5277,8436],[-3,-20],[-22,-43],[-1,-46],[28,-4],[11,13],[34,8],[5,-34],[-29,-14],[-5,-17],[-20,1],[-19,-20],[-4,-27],[7,-26],[-19,1],[-27,-30],[1,36],[8,21],[-14,38],[-29,8],[-7,25],[28,-5],[8,14],[2,48],[31,6],[6,38],[13,4],[17,25]],[[5257,8530],[-21,-18],[-23,-3],[-8,22],[52,-1]],[[5307,8589],[-22,-9],[-11,-15],[-41,24],[16,13],[22,3],[19,12],[17,-28]],[[5650,8685],[8,-14],[-18,-9],[-12,-36],[-24,-10],[-8,-16],[6,-22],[-58,-63],[-32,-9],[-14,39],[29,22],[-4,27],[32,19],[-12,17],[9,15],[-5,15],[55,10],[39,18],[9,-3]],[[5545,8713],[0,-46],[-29,4],[10,37],[19,5]],[[5364,9544],[49,18],[43,-16],[0,-21],[-13,-31],[9,-15],[-17,-10],[-8,-21],[-1,-29],[-13,-6],[-1,-23],[-42,-34],[-29,17],[-21,-1],[-2,32],[9,36],[0,33],[14,45],[6,51],[22,-4],[-5,-21]],[[5583,9910],[10,-24],[-10,-43],[-7,-60],[-29,-42],[-58,-52],[8,-36],[13,-20],[-15,-9],[15,-21],[-1,-21],[-30,-34],[-21,17],[20,19],[-6,23],[-43,6],[-20,-15],[-4,67],[2,37],[13,17],[13,34],[19,25],[-33,20],[16,19],[12,53],[28,3],[22,-6],[34,42],[28,13],[24,-12]],[[6202,8297],[-2,-26],[-39,-22],[-1,-11],[35,-43],[41,26],[15,-4],[37,8],[31,-23],[31,-62],[-6,-23],[5,-22],[-26,-30],[10,-12],[-8,-19],[-41,-22],[-23,3],[-22,-27],[-25,-19],[-31,-11],[-10,24],[-35,20],[3,38],[57,34],[9,20],[-13,15],[-13,36],[-30,2],[-17,-8],[-35,6],[-51,-33],[-56,6],[-1,-22],[-35,-39],[-28,-44],[-41,-19],[2,-10],[-28,-28],[-42,-9],[30,31],[1,15],[15,23],[9,28],[17,11],[10,22],[-16,4],[-50,68],[1,17],[-25,5],[-6,-14],[-33,25],[-20,31],[2,12],[-23,48],[-22,18],[1,26],[23,22],[-6,17],[10,18],[19,55],[67,-44],[-19,-27],[50,-13],[22,-25],[-13,-19],[10,-13],[-29,-16],[17,-21],[-8,-32],[41,-29],[20,4],[10,26],[22,3],[25,-19],[12,4],[28,-20],[8,18],[-23,15],[-8,27],[-20,20],[2,37],[15,18],[-4,28],[-35,23],[-23,23],[-32,-8],[-31,11],[1,7],[-9,8],[2,7],[-7,11],[7,7],[1,19],[-3,7],[-8,4],[-27,2],[-27,-7],[2,25],[-19,-1],[9,-43],[-40,-6],[-6,10],[26,14],[-15,28],[-18,7],[1,20],[-28,-1],[-16,16],[-28,17],[-8,16],[10,19],[17,4],[-15,55],[5,46],[58,-14],[19,20],[9,-31],[21,-6],[24,13],[49,10],[2,-29]],[[5711,8374],[-19,-15],[-17,4],[15,27],[28,5],[-7,-21]],[[5665,8799],[-18,-25],[-17,5],[-6,23],[25,10],[16,-13]],[[5830,9125],[-11,-37],[8,-20],[19,-15],[-1,-23],[-41,-6],[-19,-29],[-33,20],[6,9],[-32,14],[10,47],[22,1],[-12,21],[5,17],[24,17],[17,-12],[38,-4]],[[5846,8431],[5,-17],[-17,-5],[-7,-22],[-18,18],[3,49],[18,16],[22,-5],[0,-25],[-7,-6],[1,-3]],[[5895,8696],[12,-9],[-41,-18],[-3,34],[11,16],[21,-23]],[[5843,8742],[-17,-6],[-16,-20],[-22,11],[26,23],[11,21],[18,-29]],[[6328,7702],[-19,14],[22,17],[16,-8],[-19,-23]],[[6134,7915],[54,1],[18,-71],[-10,-12],[10,-20],[9,-42],[-1,-26],[-13,-29],[-15,-18],[-28,8],[-3,-37],[-13,5],[-52,-72],[-28,-2],[-15,-19],[-18,5],[-1,23],[10,16],[-35,11],[9,20],[25,27],[21,4],[23,-22],[3,25],[-24,7],[-38,-5],[-11,16],[-5,29],[17,19],[10,48],[27,36],[5,45],[19,1],[50,29]],[[6327,7795],[-18,-18],[-43,4],[-28,-6],[-18,14],[-17,37],[65,30],[30,32],[37,9],[8,-9],[31,-3],[31,13],[12,-4],[-15,-36],[-2,-15],[-24,-34],[7,-10],[-13,-23],[-16,-10],[-29,10],[2,19]],[[6414,7957],[-1,-30],[-20,-11],[-19,3],[10,28],[-20,4],[24,29],[18,8],[11,-15],[-3,-16]],[[6336,7563],[17,21],[-8,9],[19,24],[25,10],[8,24],[22,25],[17,-3],[-10,32],[14,19],[6,23],[71,69],[-7,33],[-19,8],[4,14],[-14,19],[11,17],[16,0],[24,35],[37,26],[3,29],[-50,-13],[-32,3],[-27,-12],[-36,-6],[-12,20],[39,26],[33,10],[26,32],[33,13],[1,27],[-8,33],[14,14],[-28,31],[-3,14],[-48,11],[1,26],[-40,22],[-17,1],[-15,14],[-8,62],[-13,14]],[[6745,8434],[32,-12],[20,-25],[20,-12],[28,-4],[12,-22],[17,0],[18,18],[11,41],[-39,51],[13,39],[19,-5],[19,15],[19,1],[47,-14],[27,-24],[17,-24],[6,-43],[35,-30],[7,-31],[21,-21],[-2,-51],[10,-49],[61,-51]],[[7163,8181],[-54,-6],[-24,-46],[8,-7],[-13,-24],[-45,-31],[-4,-36],[-20,8],[-30,-35],[3,-41],[-10,-15],[-17,-3],[-30,8],[-12,-31],[-18,-8],[6,-24],[-13,-4],[-2,-24],[8,-40],[23,-36],[21,-1],[9,-49],[25,-20],[-15,-37],[-31,-25],[-10,-17],[25,-13],[11,-26],[14,-5],[-4,-46],[-31,4],[-18,13],[-30,-1],[-25,-45],[-36,-4],[-22,16],[-24,-11],[-18,-21],[-89,4],[-28,-3]],[[6643,7499],[-18,6],[-38,27],[-3,14],[-24,5],[-11,28],[-23,-29],[-22,-1],[-15,-15],[-41,-4],[-21,-17],[-55,5],[-14,25],[-22,20]],[[7041,8911],[31,-11],[31,-1],[13,-19],[40,0],[85,-9],[3,17],[33,25],[45,47],[61,21],[18,-4],[34,-23],[11,7],[35,-52],[28,-31],[4,-43],[-8,-32],[8,-6],[-22,-48],[-10,-34],[-35,15],[-21,1],[7,-45],[-39,-4],[-11,-22],[-36,7],[-17,12],[-21,-7],[-2,-28],[14,-58],[65,-20],[22,15],[66,16],[36,-21],[30,-11],[32,-3],[30,7],[52,17],[-36,-59],[-33,-39],[-11,-23],[6,-14],[25,-7],[20,15],[9,-21],[-13,-18],[55,-20],[33,3],[34,-10],[-23,-13],[-41,6],[-11,-25],[-25,-32],[60,-42],[43,-13],[-22,-18],[4,-21],[14,-1],[-45,-46],[25,-14],[-24,-16],[-15,-22],[-32,17],[-26,-26],[14,-27]],[[7638,8100],[-32,-9],[-3,38],[14,27],[-1,15],[-45,0],[-16,11],[-45,-2],[-6,-32],[-13,-22],[-31,-5],[-74,5],[-18,-18],[-49,14],[5,29],[-36,34],[-33,-8],[-13,-15],[-18,1],[-31,-9],[-12,19],[-18,8]],[[7019,6904],[10,38],[21,9],[-1,38],[8,25],[-15,22],[1,20],[-25,12],[-27,-10],[-41,31],[-22,-25],[-25,38],[3,22],[-13,14],[2,34],[-15,-3],[-17,12],[8,20],[-49,6],[-45,27],[-1,27],[19,41],[-17,31],[-18,15],[-35,3],[-27,35],[-7,35],[-35,29],[-27,9],[0,18],[14,22]],[[7638,8100],[-50,-36],[-9,-19],[-38,-19],[2,-24],[-8,-22],[-19,-23],[-30,-6],[-21,-42],[2,-29],[35,-9],[-1,-10],[-24,-18],[-31,13],[-8,-24],[26,-23],[-14,-21],[-23,-13],[-13,-38],[4,-6],[-25,-29],[-23,-61],[-7,-33],[-32,-108],[-37,-115],[-21,-82],[-5,-51],[3,-17],[28,-29],[-17,-34],[0,-26],[-10,-21],[5,-61],[-34,-23],[-20,-28],[-12,-35],[0,-56],[-19,-8],[8,-34],[-6,-14],[-27,-21],[2,-35],[-17,11],[-6,17],[-23,-8],[-34,7],[-14,40],[-18,15],[-38,12]],[[4707,2791],[3,-20],[-29,0],[-10,23],[8,17],[17,0],[11,-20]],[[4840,3074],[-14,-11],[-32,-6],[-21,17],[-9,23],[8,27],[25,-6],[65,12],[17,14],[19,-9],[-35,-46],[-23,-15]],[[5140,3370],[-21,-5],[-13,12],[-4,21],[-30,24],[16,13],[5,27],[-14,20],[0,84],[14,16],[19,-5],[36,4],[5,-19],[-8,-46],[17,-18],[20,-10],[24,-23],[-5,-21],[-43,-72],[-18,-2]],[[5390,3715],[0,-21],[-41,18],[6,18],[20,-21],[15,6]],[[5314,3703],[-17,-1],[12,34],[12,-10],[-7,-23]],[[5378,3853],[-29,-2],[18,-26],[21,-2],[-4,-23],[21,-12],[40,-9],[20,8],[9,-13],[-10,-22],[-14,-8],[-27,21],[-7,-26],[-19,14],[-2,27],[-26,-16],[-11,21],[0,21],[-24,20],[-2,16],[9,22],[28,0],[9,-11]],[[5521,3861],[-4,-35],[-29,9],[-11,-9],[20,-28],[-14,-6],[-57,29],[-5,36],[-22,4],[27,24],[-25,12],[-10,-12],[-35,7],[-31,-3],[1,42],[18,-6],[31,18],[-20,19],[47,23],[39,8],[22,31],[24,-13],[28,24],[25,7],[18,-5],[15,18],[34,-3],[12,43],[20,16],[14,-8],[29,20],[21,-33],[0,-20],[17,-1],[16,14],[13,24],[-15,22],[1,17],[17,25],[18,-40],[16,-12],[2,-30],[-9,-16],[-30,-10],[-7,-11],[-32,7],[-36,-38],[-20,-31],[-22,-2],[1,-22],[-44,-16],[-21,7],[-11,-33],[-14,-22],[33,-15],[-15,-21],[-28,-9],[-12,4]],[[5362,4730],[-17,11],[-5,18],[20,0],[2,-29]],[[5690,5026],[-15,14],[19,12],[9,-21],[-13,-5]],[[6047,4005],[-17,-16],[-21,-40],[-21,-12],[-13,2],[-20,18],[7,25],[23,4],[21,14],[29,30],[22,-7],[-10,-18]],[[5787,5188],[-17,-14],[-12,45],[32,17],[18,-1],[-8,-39],[-13,-8]],[[5938,5416],[0,-18],[15,-13],[-28,-13],[-16,5],[-23,36],[15,22],[37,-19]],[[5980,5499],[-26,4],[-11,16],[19,14],[18,-34]],[[6175,5994],[16,-12],[38,-1],[23,-21],[-45,-21],[-37,42],[5,13]],[[6284,6270],[-20,10],[23,16],[15,-16],[-18,-10]],[[5977,6301],[-20,3],[-10,13],[29,19],[21,-20],[-20,-15]],[[7019,6904],[-43,14],[-13,-18],[-14,1],[-32,-29],[-19,-34],[-1,-31],[70,-23],[3,-13],[-23,-36],[46,-3],[-43,-30],[-11,-15],[-42,0],[-12,-36],[-26,-22],[-9,-26],[-53,-23],[-20,-14],[-28,-8],[-12,4],[-28,-10],[-33,-25],[-37,-13],[-28,-36],[-22,3],[16,22],[2,29],[-17,9],[48,40],[25,16],[20,46],[-12,21],[17,33],[13,9],[7,40],[-5,13],[11,29],[-21,34],[-20,49],[-22,24],[-26,9],[-7,26],[14,48],[-36,12],[-22,-8],[-41,33],[30,37],[36,7],[20,-3],[18,-22],[2,-38],[44,3],[17,21],[0,17],[31,52],[-26,40],[-53,6],[-12,15],[-26,9],[-22,-6],[-40,-30],[0,-29],[-10,-31],[-22,-16],[-11,-17],[5,-25],[-9,-22],[-15,-10],[-8,-48],[-14,-18],[10,-53],[10,-16],[22,-63],[48,-43],[39,-9],[-14,-21],[7,-22],[-27,-37],[-22,1],[-13,-20],[-27,16],[-20,-14],[-19,11],[6,22],[-25,36],[-23,13],[-24,-4],[-24,6],[-45,-2],[-56,15],[-19,-10],[-34,-2],[-2,18],[-15,21],[20,9],[-30,57],[-14,-1],[-21,22],[-13,25],[27,17],[17,-23],[33,-7],[40,23],[30,48],[17,44],[6,34],[-4,62],[-12,28],[-14,10],[-33,48],[-42,32],[-10,-1],[-28,38],[25,58],[22,35],[-5,54],[-12,29],[-19,16],[0,13],[20,21],[-3,36],[-24,1],[4,26],[30,18],[34,3],[31,-18],[24,7],[32,18],[7,31]],[[5855,7194],[-25,-56],[-17,4],[-5,-26],[-15,-17],[11,-15],[-35,-30],[-26,17],[-7,18],[20,2],[2,17],[18,39],[52,20],[27,27]],[[5952,7259],[16,-17],[-48,-4],[-22,12],[4,18],[-30,9],[15,18],[14,2],[26,-24],[25,-14]],[[6193,7591],[-5,-30],[15,-17],[-22,-11],[-3,-20],[-16,-24],[-38,33],[4,24],[-18,32],[8,26],[65,5],[10,-18]],[[6248,7662],[-38,-21],[0,25],[17,19],[29,-3],[-8,-20]],[[6464,5968],[28,-9],[46,-27],[35,-15],[28,-28],[-11,-61],[-62,-61],[-55,-13],[-28,1],[-39,9],[-19,28],[-13,42],[-11,9],[-13,50],[4,17],[32,2],[28,34],[17,27],[33,-5]],[[6855,5935],[9,-17],[-13,-27],[-34,-2],[-46,-23],[-11,22],[7,43],[-12,30],[55,66],[32,69],[-2,36],[-8,15],[12,33],[20,39],[21,23],[-1,30],[45,52],[24,-52],[-9,-13],[0,-48],[-3,-22],[-17,-44],[5,-39],[-19,-16],[-8,-29],[-21,-8],[-3,-16],[-28,-48],[-3,-18],[14,-13],[-6,-23]],[[6762,6219],[-18,1],[12,34],[13,-21],[-7,-14]],[[716,0],[-18,1],[-5,13],[19,8],[26,-5],[-22,-17]],[[909,161],[-14,19],[6,12],[27,-15],[-19,-16]],[[893,258],[-22,7],[10,21],[24,-21],[-12,-7]],[[750,320],[10,15],[24,-12],[48,-15],[18,-12],[-7,-35],[-17,-8],[-25,-59],[-16,0],[-25,15],[-23,-2],[-44,9],[-27,18],[-3,-19],[-34,4],[-15,24],[18,21],[22,-7],[17,9],[16,-10],[5,28],[-9,15],[3,19],[30,45],[26,-25],[8,-18]],[[78,380],[-19,-17],[-24,5],[-15,-5],[-20,19],[16,14],[38,1],[24,-17]],[[1179,480],[-16,-16],[3,-14],[-21,-21],[-2,-17],[-26,-26],[-1,-30],[7,-17],[-7,-49],[-12,-13],[-28,9],[-9,-18],[-19,-5],[-50,34],[22,17],[5,27],[-19,19],[-28,-10],[-16,5],[9,19],[26,-5],[11,28],[25,-18],[22,-6],[12,9],[26,-2],[5,39],[25,20],[16,-9],[15,36],[15,58],[22,-5],[2,-17],[-14,-22]],[[1514,553],[-35,2],[-2,20],[21,11],[25,-10],[-9,-23]],[[1898,723],[-15,-16],[-11,26],[26,-10]],[[1946,713],[-14,-9],[-24,8],[-19,23],[7,26],[42,-20],[8,-28]],[[2018,750],[23,-27],[-1,-18],[18,-14],[31,-6],[12,-16],[32,-11],[8,-27],[-66,3],[-54,-16],[-41,23],[-7,16],[25,11],[-22,27],[21,18],[-3,22],[16,8],[-15,28],[17,1],[6,-22]],[[4087,1909],[-41,-21],[-20,9],[7,28],[-9,44],[-16,36],[25,19],[36,48],[15,0],[22,16],[8,19],[-39,94],[0,28],[24,-18],[27,19],[11,-7],[42,41],[4,16],[23,13],[44,7],[49,39],[6,24],[-53,22],[-23,5],[-12,21],[8,33],[-13,12],[5,17],[20,-4],[47,8],[40,-18],[-14,-31],[15,-23],[15,-3],[47,16],[20,18],[-4,15],[17,22],[22,5],[14,13],[-4,16],[23,8],[42,45],[26,65],[24,-19],[26,-32],[5,-27],[-8,-45],[-9,-4],[-23,-49],[-20,-18],[-15,-24],[-48,-8],[-19,6],[-7,-30],[-24,4],[18,-28],[-4,-15],[-25,-5],[-17,-14],[-23,15],[-24,-3],[15,-26],[-35,-7],[-18,-36],[-38,-9],[-2,-21],[-51,14],[-25,-5],[-25,-27],[38,-33],[2,-24],[13,-20],[23,-17],[-14,-16],[-31,37],[-21,-12],[-23,-31],[5,-14],[-16,-17],[-7,-33],[-21,-23],[25,-18],[23,5],[7,-24],[-32,-28],[-14,0],[-25,-16],[-16,-19]],[[3781,1995],[-18,-21],[-8,14],[8,26],[15,11],[3,-30]],[[3750,2032],[-26,-9],[7,26],[19,-17]],[[3301,2154],[14,-13],[-16,-21],[-5,-29],[-16,11],[-15,27],[-39,18],[0,20],[52,15],[25,-28]],[[4173,2479],[-58,-1],[-10,13],[10,14],[40,1],[18,-14],[0,-13]],[[7110,1668],[-8,-20],[-21,-5],[-17,10],[6,41],[13,5],[26,-5],[1,-26]],[[7160,1761],[-27,-5],[-7,26],[40,-10],[-6,-11]],[[4326,2425],[-11,13],[19,12],[13,-18],[-21,-7]],[[4277,2678],[-25,-4],[-1,27],[15,7],[15,-9],[-4,-21]],[[4316,2798],[-27,-16],[-1,-12],[-26,0],[16,21],[31,28],[7,-21]]],"transform":{"scale":[0.0011706796669007334,0.001073810642860366],"translate":[122.94339451913963,24.047812278950616]},"objects":{"pref_web":{"type":"GeometryCollection","geometries":[{"arcs":[[[0]],[[1]],[[2]],[[3]],[[4]],[[5]],[[6]],[[7]]],"type":"MultiPolygon","properties":{"code":"01"}},{"arcs":[[8,9,10]],"type":"Polygon","properties":{"code":"02"}},{"arcs":[[11,-10,12,13]],"type":"Polygon","properties":{"code":"03"}},{"arcs":[[[14,15,-14,16,17]],[[18]]],"type":"MultiPolygon","properties":{"code":"04"}},{"arcs":[[19,-11,-12,-16,20]],"type":"Polygon","properties":{"code":"05"}},{"arcs":[[21,22,-21,-15,23]],"type":"Polygon","properties":{"code":"06"}},{"arcs":[[24,25,-24,-18,26,27,28]],"type":"Polygon","properties":{"code":"07"}},{"arcs":[[29,30,-28,31,32]],"type":"Polygon","properties":{"code":"08"}},{"arcs":[[33,34,-29,-31]],"type":"Polygon","properties":{"code":"09"}},{"arcs":[[35,36,-25,-35,37]],"type":"Polygon","properties":{"code":"10"}},{"arcs":[[38,39,-38,-34,-30,40,41]],"type":"Polygon","properties":{"code":"11"}},{"arcs":[[42,-41,-33,43]],"type":"Polygon","properties":{"code":"12"}},{"arcs":[[[44]],[[45]],[[46]],[[47,-42,-43,48,49]],[[50]],[[51]],[[52]],[[53]],[[54]],[[55]],[[56]]],"type":"MultiPolygon","properties":{"code":"13"}},{"arcs":[[[57,58,-50,59]],[[60]]],"type":"MultiPolygon","properties":{"code":"14"}},{"arcs":[[[61,62,63,-22,-26,-37]],[[64]]],"type":"MultiPolygon","properties":{"code":"15"}},{"arcs":[[65,66,-63,67,68]],"type":"Polygon","properties":{"code":"16"}},{"arcs":[[[69,-66,70,71]],[[72]]],"type":"MultiPolygon","properties":{"code":"17"}},{"arcs":[[73,74,-72,75,76]],"type":"Polygon","properties":{"code":"18"}},{"arcs":[[77,-39,-48,-59,78]],"type":"Polygon","properties":{"code":"19"}},{"arcs":[[79,80,-68,-62,-36,-40,-78,81]],"type":"Polygon","properties":{"code":"20"}},{"arcs":[[82,83,-76,-71,-69,-81,84]],"type":"Polygon","properties":{"code":"21"}},{"arcs":[[85,-82,-79,-58,86]],"type":"Polygon","properties":{"code":"22"}},{"arcs":[[[87,-85,-80,-86,88]],[[89]]],"type":"MultiPolygon","properties":{"code":"23"}},{"arcs":[[90,91,92,93,94,95,96,97,-83,-88,98]],"type":"Polygon","properties":{"code":"24"}},{"arcs":[[99,-77,-84,-98]],"type":"Polygon","properties":{"code":"25"}},{"arcs":[[100,101,-74,-100,-97,102,103]],"type":"Polygon","properties":{"code":"26"}},{"arcs":[[[104,105,-104,106,107]],[[108]]],"type":"MultiPolygon","properties":{"code":"27"}},{"arcs":[[[109,110,111,-101,-106,112]],[[113]],[[114]],[[115]]],"type":"MultiPolygon","properties":{"code":"28"}},{"arcs":[[-94,116,-92,117,-107,-103,-96,118]],"type":"Polygon","properties":{"code":"29"}},{"arcs":[[[-108,-118,-91,119]],[[-117,-93]],[[-119,-95]]],"type":"MultiPolygon","properties":{"code":"30"}},{"arcs":[[120,121,122,-111,123]],"type":"Polygon","properties":{"code":"31"}},{"arcs":[[[124,-122,125,126]],[[127]],[[128]],[[129]],[[130]]],"type":"MultiPolygon","properties":{"code":"32"}},{"arcs":[[[131]],[[132,-124,-110,133]],[[136]]],"type":"MultiPolygon","properties":{"code":"33"}},{"arcs":[[[139]],[[140]],[[141]],[[142,-126,-121,-133,143]],[[144]],[[145]],[[146]],[[147]],[[148]],[[149]],[[150]],[[151]],[[152]]],"type":"MultiPolygon","properties":{"code":"34"}},{"arcs":[[[153]],[[-127,-143,154]],[[155]],[[156]],[[157]],[[158]],[[159]],[[160]]],"type":"MultiPolygon","properties":{"code":"35"}},{"arcs":[[[162,163,164,165]],[[166]]],"type":"MultiPolygon","properties":{"code":"36"}},{"arcs":[[[167,168,-165]],[[169]],[[170]],[[171]],[[172]]],"type":"MultiPolygon","properties":{"code":"37"}},{"arcs":[[[174,-168,-164,175]],[[176]],[[177]],[[178]],[[179]],[[180]],[[181]]],"type":"MultiPolygon","properties":{"code":"38"}},{"arcs":[[[182]],[[-176,-163,183]]],"type":"MultiPolygon","properties":{"code":"39"}},{"arcs":[[[184,185,186,187,188]],[[189]]],"type":"MultiPolygon","properties":{"code":"40"}},{"arcs":[[190,-186,191,192]],"type":"Polygon","properties":{"code":"41"}},{"arcs":[[[193]],[[194]],[[195]],[[196]],[[197]],[[198]],[[199]],[[200]],[[201]],[[202]],[[203]],[[204]],[[-193,205]],[[206]],[[207]],[[208]],[[209]],[[210]],[[211]]],"type":"MultiPolygon","properties":{"code":"42"}},{"arcs":[[[212]],[[213]],[[214]],[[215]],[[216,-189,217,218,219]]],"type":"MultiPolygon","properties":{"code":"43"}},{"arcs":[[-218,-188,220,221]],"type":"Polygon","properties":{"code":"44"}},{"arcs":[[222,-219,-222,223]],"type":"Polygon","properties":{"code":"45"}},{"arcs":[[[224]],[[225]],[[226]],[[227]],[[228]],[[229]],[[230]],[[231]],[[232]],[[233]],[[234]],[[235]],[[236]],[[237]],[[238]],[[239]],[[-220,-223,240]],[[241]],[[242]],[[243]],[[244]],[[245]],[[246]],[[247]]],"type":"MultiPolygon","properties":{"code":"46"}},{"arcs":[[[248]],[[249]],[[250]],[[251]],[[252]],[[253]],[[254]],[[255]],[[256]],[[257]],[[258]],[[259]],[[260]],[[261]],[[262]],[[263]],[[264]],[[265]],[[266]],[[267]]],"type":"MultiPolygon","properties":{"code":"47"}}]}}}