{"type":"FeatureCollection","fetched":"2026-09-24","features":[{"type":"Feature","geometry":{"type":"Point","coordinates":[139.666617,35.426343]},"properties":{"id":7800,"name":"Yokohama, Japan - Honmoku","facility":"Times Aeon Honmoku Store","status":"OPEN","group":"open","stalls":4,"kw":250,"opened":"2024-03-26","x":240.825,"y":-60.003,"stalls_est":false}},{"type":"Feature","geometry":{"type":"Point","coordinates":[139.684435,35.274781]},"properties":{"id":7810,"name":"Yokosuka, Japan","facility":"Livin Yokosuka Store","status":"OPEN","group":"open","stalls":6,"kw":250,"opened":"2024-03-29","x":242.895,"y":-76.677,"stalls_est":false}},{"type":"Feature","geometry":{"type":"Point","coordinates":[139.898546,35.652774]},"properties":{"id":10775,"name":"Urayasu, Japan - Higashino","facility":"FamilyMart","status":"OPEN","group":"open","stalls":4,"kw":250,"opened":"2025-12-16","x":261.02,"y":-34.429,"stalls_est":false}},{"type":"Feature","geometry":{"type":"Point","coordinates":[127.685217,26.23232]},"properties":{"id":10774,"name":"Naha, Japan - Ameku","facility":"FamilyMart","status":"OPEN","group":"open","stalls":3,"kw":250,"opened":"2026-02-27","x":-937.451,"y":-1037.346,"stalls_est":false}},{"type":"Feature","geometry":{"type":"Point","coordinates":[139.702852,35.597944]},"properties":{"id":10776,"name":"Ota-ku, Japan - Kamiikedai","facility":"Red Lobster","status":"OPEN","group":"open","stalls":4,"kw":250,"opened":"2026-03-05","x":243.57,"y":-40.984,"stalls_est":false}},{"type":"Feature","geometry":{"type":"Point","coordinates":[135.353569,34.741661]},"properties":{"id":10779,"name":"Nishinomiya, Japan - Ashiharacho","facility":null,"status":"OPEN","group":"open","stalls":4,"kw":250,"opened":"2026-01-30","x":-149.981,"y":-137.592,"stalls_est":false}},{"type":"Feature","geometry":{"type":"Point","coordinates":[139.452968,35.676436]},"properties":{"id":10777,"name":"Fuchu, Japan - Nishifucho","facility":"FamilyMart","status":"OPEN","group":"open","stalls":4,"kw":250,"opened":"2025-12-16","x":220.839,"y":-32.922,"stalls_est":false}},{"type":"Feature","geometry":{"type":"Point","coordinates":[136.838638,34.901398]},"properties":{"id":10778,"name":"Tokoname, Japan - Nijinooka","facility":null,"status":"OPEN","group":"open","stalls":4,"kw":250,"opened":"2026-02-20","x":-14.671,"y":-121.22,"stalls_est":false}},{"type":"Feature","geometry":{"type":"Point","coordinates":[139.954662,35.897668]},"properties":{"id":5677,"name":"Kashiwanoha, Japan","facility":null,"status":"OPEN","group":"open","stalls":4,"kw":250,"opened":"2022-12-20","x":265.252,"y":-7.265,"stalls_est":false}},{"type":"Feature","geometry":{"type":"Point","coordinates":[143.92895,43.805558]},"properties":{"id":10814,"name":"Kitami, Japan","facility":null,"status":"VOTING","group":"planned","stalls":4,"kw":250,"opened":null,"x":559.284,"y":884.526,"stalls_est":true}},{"type":"Feature","geometry":{"type":"Point","coordinates":[135.748703,34.888174]},"properties":{"id":10815,"name":"Kumiyama, Japan","facility":null,"status":"VOTING","group":"planned","stalls":4,"kw":250,"opened":null,"x":-113.781,"y":-121.96,"stalls_est":true}},{"type":"Feature","geometry":{"type":"Point","coordinates":[139.467016,35.352073]},"properties":{"id":10836,"name":"Fujisawa, Japan - Inari","facility":"FamilyMart","status":"OPEN","group":"open","stalls":4,"kw":250,"opened":"2025-12-17","x":223.011,"y":-68.672,"stalls_est":false}},{"type":"Feature","geometry":{"type":"Point","coordinates":[135.4032,33.718257]},"properties":{"id":8051,"name":"Nanki, Japan","facility":"FamilyMart","status":"OPEN","group":"open","stalls":4,"kw":130,"opened":"2024-05-20","x":-147.314,"y":-250.614,"stalls_est":false}},{"type":"Feature","geometry":{"type":"Point","coordinates":[135.26703,34.381525]},"properties":{"id":8595,"name":"Rinkusennan, Japan","facility":"AEON MALL","status":"OPEN","group":"open","stalls":6,"kw":250,"opened":"2024-12-20","x":-158.571,"y":-177.195,"stalls_est":false}},{"type":"Feature","geometry":{"type":"Point","coordinates":[137.244045,36.138076]},"properties":{"id":8174,"name":"Takayama, Japan","facility":"FamilyMart","status":"OPEN","group":"open","stalls":4,"kw":250,"opened":"2024-07-22","x":21.846,"y":15.265,"stalls_est":false}},{"type":"Feature","geometry":{"type":"Point","coordinates":[139.37596,35.332747]},"properties":{"id":8139,"name":"Chigasaki, Japan","facility":"FamilyMart","status":"OPEN","group":"open","stalls":4,"kw":250,"opened":"2024-07-03","x":214.833,"y":-71.009,"stalls_est":false}},{"type":"Feature","geometry":{"type":"Point","coordinates":[139.007691,36.392248]},"properties":{"id":10954,"name":"Takasaki, Japan - Munadakamachi","facility":null,"status":"OPEN","group":"open","stalls":4,"kw":250,"opened":"2026-01-07","x":179.127,"y":45.136,"stalls_est":false}},{"type":"Feature","geometry":{"type":"Point","coordinates":[136.885465,35.224651]},"properties":{"id":8130,"name":"Nagoya, Japan - Kita","facility":null,"status":"OPEN","group":"open","stalls":8,"kw":250,"opened":"2024-06-25","x":-10.371,"y":-85.554,"stalls_est":false}},{"type":"Feature","geometry":{"type":"Point","coordinates":[135.181435,35.301046]},"properties":{"id":8594,"name":"Fukuchiyama, Japan","facility":null,"status":"VOTING","group":"planned","stalls":4,"kw":250,"opened":null,"x":-164.506,"y":-75.593,"stalls_est":true}},{"type":"Feature","geometry":{"type":"Point","coordinates":[142.33481,43.77561]},"properties":{"id":8685,"name":"Asahikawa, Japan","facility":null,"status":"VOTING","group":"planned","stalls":4,"kw":250,"opened":null,"x":430.941,"y":873.08,"stalls_est":true}},{"type":"Feature","geometry":{"type":"Point","coordinates":[135.480941,34.595296]},"properties":{"id":8597,"name":"Sakai, Japan","facility":"AEON MALL","status":"OPEN","group":"open","stalls":6,"kw":250,"opened":"2024-11-15","x":-138.631,"y":-153.932,"stalls_est":false}},{"type":"Feature","geometry":{"type":"Point","coordinates":[131.441111,34.162678]},"properties":{"id":8593,"name":"Yamaguchi, Japan","facility":null,"status":"OPEN","group":"open","stalls":4,"kw":250,"opened":"2025-08-08","x":-509.782,"y":-188.196,"stalls_est":false}},{"type":"Feature","geometry":{"type":"Point","coordinates":[139.189042,35.28336]},"properties":{"id":8680,"name":"Odawara, Japan - Nakazato","facility":null,"status":"OPEN","group":"open","stalls":4,"kw":250,"opened":"2025-09-12","x":198.058,"y":-76.854,"stalls_est":false}},{"type":"Feature","geometry":{"type":"Point","coordinates":[139.331468,35.669685]},"properties":{"id":8682,"name":"Hachioji, Japan","facility":null,"status":"OPEN","group":"open","stalls":4,"kw":250,"opened":"2025-05-16","x":209.92,"y":-33.936,"stalls_est":false}},{"type":"Feature","geometry":{"type":"Point","coordinates":[139.081677,34.974691]},"properties":{"id":8679,"name":"Itō, Japan - Shimoda","facility":null,"status":"VOTING","group":"planned","stalls":4,"kw":250,"opened":null,"x":189.074,"y":-111.121,"stalls_est":true}},{"type":"Feature","geometry":{"type":"Point","coordinates":[143.191428,42.920754]},"properties":{"id":8686,"name":"Obihiro, Japan","facility":"ENEOS Super Pit Chuo","status":"OPEN","group":"open","stalls":4,"kw":250,"opened":"2026-09-18","x":506.108,"y":782.126,"stalls_est":false}},{"type":"Feature","geometry":{"type":"Point","coordinates":[132.755779,35.364492]},"properties":{"id":8830,"name":"Izumo City, Japan","facility":null,"status":"VOTING","group":"planned","stalls":4,"kw":250,"opened":null,"x":-383.524,"y":-61.762,"stalls_est":true}},{"type":"Feature","geometry":{"type":"Point","coordinates":[132.49741,34.393814]},"properties":{"id":11400,"name":"Fuchu, Japan - Osu","facility":null,"status":"OPEN","group":"open","stalls":4,"kw":250,"opened":"2026-04-27","x":-411.811,"y":-167.721,"stalls_est":false}},{"type":"Feature","geometry":{"type":"Point","coordinates":[139.623593,35.616331]},"properties":{"id":11398,"name":"Setagaya-ku, Japan - Tamagawa","facility":null,"status":"OPEN","group":"open","stalls":4,"kw":250,"opened":"2026-04-27","x":236.375,"y":-39.151,"stalls_est":false}},{"type":"Feature","geometry":{"type":"Point","coordinates":[142.384181,43.349649]},"properties":{"id":11514,"name":"Furano, Japan","facility":null,"status":"VOTING","group":"planned","stalls":4,"kw":250,"opened":null,"x":437.552,"y":825.888,"stalls_est":true}},{"type":"Feature","geometry":{"type":"Point","coordinates":[144.38103,42.990476]},"properties":{"id":11515,"name":"Kushiro, Japan","facility":null,"status":"VOTING","group":"planned","stalls":4,"kw":250,"opened":null,"x":602.591,"y":796.646,"stalls_est":true}},{"type":"Feature","geometry":{"type":"Point","coordinates":[140.507012,37.823472]},"properties":{"id":11516,"name":"Date, Japan","facility":null,"status":"PLAN","group":"planned","stalls":4,"kw":250,"opened":null,"x":307.158,"y":206.823,"stalls_est":true}},{"type":"Feature","geometry":{"type":"Point","coordinates":[139.859973,35.644615]},"properties":{"id":11518,"name":"Edogawa City, Japan","facility":null,"status":"PLAN","group":"planned","stalls":4,"kw":250,"opened":null,"x":257.574,"y":-35.431,"stalls_est":true}},{"type":"Feature","geometry":{"type":"Point","coordinates":[139.993915,35.687703]},"properties":{"id":11519,"name":"Funabashi, Japan - Hamacho","facility":null,"status":"OPEN","group":"open","stalls":6,"kw":250,"opened":"2026-07-01","x":269.487,"y":-30.316,"stalls_est":false}},{"type":"Feature","geometry":{"type":"Point","coordinates":[136.671915,35.45682]},"properties":{"id":11523,"name":"Motosu, Japan - Mitsuhashi","facility":"MALera Gifu","status":"OPEN","group":"open","stalls":4,"kw":250,"opened":"2026-07-15","x":-29.622,"y":-59.89,"stalls_est":false}},{"type":"Feature","geometry":{"type":"Point","coordinates":[139.805955,35.695918]},"properties":{"id":11517,"name":"Sumida-ku, Japan - Kamezawa","facility":null,"status":"PLAN","group":"planned","stalls":4,"kw":250,"opened":null,"x":252.547,"y":-29.914,"stalls_est":true}},{"type":"Feature","geometry":{"type":"Point","coordinates":[130.430649,33.658875]},"properties":{"id":11522,"name":"Fukuoka, Japan - Kashiihama","facility":"AEON MALL","status":"OPEN","group":"open","stalls":4,"kw":250,"opened":"2026-07-17","x":-606.07,"y":-237.911,"stalls_est":false}},{"type":"Feature","geometry":{"type":"Point","coordinates":[139.631967,35.572665]},"properties":{"id":11520,"name":"Kawasaki, Japan - Shibokuchi","facility":"7-Eleven","status":"OPEN","group":"open","stalls":4,"kw":250,"opened":"2026-07-11","x":237.26,"y":-43.948,"stalls_est":false}},{"type":"Feature","geometry":{"type":"Point","coordinates":[137.163619,34.93922]},"properties":{"id":11521,"name":"Okazaki, Japan - Tosakicho Sotoyama","facility":"AEON MALL","status":"OPEN","group":"open","stalls":4,"kw":250,"opened":"2026-09-04","x":14.869,"y":-117.046,"stalls_est":false}},{"type":"Feature","geometry":{"type":"Point","coordinates":[137.906227,34.82699]},"properties":{"id":9141,"name":"Enshū-Morimach, Japan","facility":null,"status":"OPEN","group":"open","stalls":12,"kw":250,"opened":"2024-10-17","x":82.467,"y":-129.06,"stalls_est":false}},{"type":"Feature","geometry":{"type":"Point","coordinates":[137.209926,36.652027]},"properties":{"id":11814,"name":"Toyama, Japan - Kurosaki","facility":"7-Eleven","status":"PLAN","group":"planned","stalls":4,"kw":250,"opened":null,"x":18.669,"y":71.979,"stalls_est":true}},{"type":"Feature","geometry":{"type":"Point","coordinates":[140.195549,36.109664]},"properties":{"id":11815,"name":"Tsuchiura, Japan","facility":"FamilyMart","status":"PLAN","group":"planned","stalls":4,"kw":250,"opened":null,"x":286.101,"y":16.801,"stalls_est":true}},{"type":"Feature","geometry":{"type":"Point","coordinates":[136.5156,34.681931]},"properties":{"id":11699,"name":"Tsu, Japan","facility":null,"status":"OPEN","group":"open","stalls":4,"kw":250,"opened":"2026-09-17","x":-44.161,"y":-145.343,"stalls_est":false}},{"type":"Feature","geometry":{"type":"Point","coordinates":[130.94185,33.978039]},"properties":{"id":11816,"name":"Shimonoseki, Japan","facility":"7-Eleven","status":"PLAN","group":"planned","stalls":4,"kw":250,"opened":null,"x":-556.779,"y":-205.805,"stalls_est":true}},{"type":"Feature","geometry":{"type":"Point","coordinates":[130.276782,33.310741]},"properties":{"id":11829,"name":"Saga, Japan","facility":"7-Eleven","status":"PLAN","group":"planned","stalls":4,"kw":250,"opened":null,"x":-622.897,"y":-275.29,"stalls_est":true}},{"type":"Feature","geometry":{"type":"Point","coordinates":[140.69039,42.832755]},"properties":{"id":11860,"name":"Niseko, Japan","facility":null,"status":"VOTING","group":"planned","stalls":4,"kw":null,"opened":null,"x":302.168,"y":761.956,"stalls_est":true}},{"type":"Feature","geometry":{"type":"Point","coordinates":[139.863625,38.906533]},"properties":{"id":8684,"name":"Sakata, Japan","facility":"FamilyMart","status":"OPEN","group":"open","stalls":4,"kw":250,"opened":"2024-10-29","x":247.304,"y":324.592,"stalls_est":false}},{"type":"Feature","geometry":{"type":"Point","coordinates":[141.604978,42.648968]},"properties":{"id":9690,"name":"Tomakomai, Japan","facility":"FamilyMart","status":"OPEN","group":"open","stalls":4,"kw":250,"opened":"2025-06-19","x":377.971,"y":744.724,"stalls_est":false}},{"type":"Feature","geometry":{"type":"Point","coordinates":[139.525792,35.745139]},"properties":{"id":9694,"name":"Higashi Kurume, Japan","facility":"AEON MALL","status":"OPEN","group":"open","stalls":4,"kw":250,"opened":"2025-06-30","x":227.197,"y":-25.175,"stalls_est":false}},{"type":"Feature","geometry":{"type":"Point","coordinates":[139.085916,35.044458]},"properties":{"id":9647,"name":"Atamiajiro, Japan","facility":null,"status":"OPEN","group":"open","stalls":4,"kw":250,"opened":"2025-02-28","x":189.294,"y":-103.416,"stalls_est":false}},{"type":"Feature","geometry":{"type":"Point","coordinates":[137.843313,36.697673]},"properties":{"id":9692,"name":"Hakuba Village, Japan","facility":null,"status":"VOTING","group":"planned","stalls":4,"kw":250,"opened":null,"x":74.953,"y":77.321,"stalls_est":true}},{"type":"Feature","geometry":{"type":"Point","coordinates":[139.732479,35.894454]},"properties":{"id":9625,"name":"Saitama, Japan - Urawa Misono","facility":null,"status":"OPEN","group":"open","stalls":3,"kw":250,"opened":"2025-02-27","x":245.321,"y":-8.202,"stalls_est":false}},{"type":"Feature","geometry":{"type":"Point","coordinates":[130.332871,33.589073]},"properties":{"id":9691,"name":"Fukuoka, Japan - Nishi","facility":"Shopper Mall Marine Town","status":"OPEN","group":"open","stalls":4,"kw":250,"opened":"2025-03-21","x":-615.604,"y":-244.986,"stalls_est":false}},{"type":"Feature","geometry":{"type":"Point","coordinates":[140.172512,39.658647]},"properties":{"id":10034,"name":"Akita, Japan","facility":"FamilyMart","status":"OPEN","group":"open","stalls":4,"kw":250,"opened":"2025-06-20","x":271.259,"y":408.552,"stalls_est":false}},{"type":"Feature","geometry":{"type":"Point","coordinates":[140.400618,35.750068]},"properties":{"id":10226,"name":"Narita Airport, Japan","facility":null,"status":"OPEN","group":"open","stalls":4,"kw":250,"opened":"2025-08-08","x":305.841,"y":-22.235,"stalls_est":false}},{"type":"Feature","geometry":{"type":"Point","coordinates":[139.613018,35.667364]},"properties":{"id":7612,"name":"Tokyo, Japan - Roka Koen","facility":null,"status":"OPEN","group":"open","stalls":12,"kw":250,"opened":"2024-02-14","x":235.271,"y":-33.547,"stalls_est":false}},{"type":"Feature","geometry":{"type":"Point","coordinates":[139.707703,35.728343]},"properties":{"id":7791,"name":"Tokyo, Japan - Ikebukuro","facility":"Hotel Metropolitan","status":"OPEN","group":"open","stalls":4,"kw":250,"opened":"2024-03-25","x":243.607,"y":-26.588,"stalls_est":false}},{"type":"Feature","geometry":{"type":"Point","coordinates":[139.571643,35.588071]},"properties":{"id":7304,"name":"Kawasaki, Japan - Kanagawa Tomei (SC)","facility":null,"status":"OPEN","group":"open","stalls":3,"kw":250,"opened":"2023-12-18","x":231.778,"y":-42.394,"stalls_est":false}},{"type":"Feature","geometry":{"type":"Point","coordinates":[135.255163,34.715574]},"properties":{"id":3950,"name":"Kobe, Japan - Mikage","facility":null,"status":"OPEN","group":"open","stalls":4,"kw":250,"opened":"2021-12-31","x":-158.996,"y":-140.314,"stalls_est":false}},{"type":"Feature","geometry":{"type":"Point","coordinates":[135.567725,34.705007]},"properties":{"id":8053,"name":"Osaka, Japan - Tsurumi","facility":null,"status":"OPEN","group":"open","stalls":4,"kw":250,"opened":"2024-05-21","x":-130.534,"y":-141.945,"stalls_est":false}},{"type":"Feature","geometry":{"type":"Point","coordinates":[139.618465,35.549445]},"properties":{"id":8068,"name":"Yokohama, Japan - Kohoku","facility":null,"status":"OPEN","group":"open","stalls":6,"kw":250,"opened":"2024-05-30","x":236.112,"y":-46.542,"stalls_est":false}},{"type":"Feature","geometry":{"type":"Point","coordinates":[140.946511,38.269158]},"properties":{"id":8145,"name":"Sendai, Japan - Miyagino","facility":"Tesla Service Center","status":"OPEN","group":"open","stalls":4,"kw":250,"opened":"2024-07-05","x":343.635,"y":257.487,"stalls_est":false}},{"type":"Feature","geometry":{"type":"Point","coordinates":[135.828233,34.986812]},"properties":{"id":10433,"name":"Kyoto, Japan - Yamashina-ku Otowamaedacho","facility":null,"status":"OPEN","group":"open","stalls":4,"kw":250,"opened":"2025-09-26","x":-106.418,"y":-111.166,"stalls_est":false}},{"type":"Feature","geometry":{"type":"Point","coordinates":[139.772724,35.700486]},"properties":{"id":8093,"name":"Tokyo, Japan - Akihabara","facility":"Akihabara UDX","status":"OPEN","group":"open","stalls":4,"kw":250,"opened":"2024-06-10","x":249.543,"y":-29.496,"stalls_est":false}},{"type":"Feature","geometry":{"type":"Point","coordinates":[139.453851,35.519364]},"properties":{"id":8681,"name":"Yokohama, Japan - Machida","facility":null,"status":"OPEN","group":"open","stalls":6,"kw":250,"opened":"2024-12-24","x":221.355,"y":-50.247,"stalls_est":false}},{"type":"Feature","geometry":{"type":"Point","coordinates":[139.688337,35.561583]},"properties":{"id":8590,"name":"Tokyo, Japan - Shimomaruko","facility":null,"status":"OPEN","group":"open","stalls":8,"kw":250,"opened":"2024-10-21","x":242.374,"y":-45.031,"stalls_est":false}},{"type":"Feature","geometry":{"type":"Point","coordinates":[139.739731,35.636836]},"properties":{"id":8683,"name":"Tokyo, Japan - Takanawa","facility":null,"status":"OPEN","group":"open","stalls":8,"kw":250,"opened":"2025-05-16","x":246.772,"y":-36.601,"stalls_est":false}},{"type":"Feature","geometry":{"type":"Point","coordinates":[139.616663,35.714442]},"properties":{"id":7962,"name":"Tokyo, Japan - Suginami","facility":null,"status":"OPEN","group":"open","stalls":4,"kw":250,"opened":"2024-04-25","x":235.46,"y":-28.345,"stalls_est":false}},{"type":"Feature","geometry":{"type":"Point","coordinates":[139.658467,35.622309]},"properties":{"id":9693,"name":"Tokyo, Japan - Komazawa","facility":null,"status":"OPEN","group":"open","stalls":6,"kw":250,"opened":"2025-07-02","x":239.498,"y":-38.407,"stalls_est":false}},{"type":"Feature","geometry":{"type":"Point","coordinates":[139.761252,35.684656]},"properties":{"id":579,"name":"Tokyo, Japan - Marunouchi","facility":null,"status":"OPEN","group":"open","stalls":2,"kw":130,"opened":"2015-03-23","x":248.56,"y":-31.271,"stalls_est":false}},{"type":"Feature","geometry":{"type":"Point","coordinates":[136.904113,35.18822]},"properties":{"id":1593,"name":"Nagoya, Japan - Meijo","facility":null,"status":"OPEN","group":"open","stalls":6,"kw":138,"opened":"2018-04-27","x":-8.687,"y":-89.576,"stalls_est":false}},{"type":"Feature","geometry":{"type":"Point","coordinates":[136.984593,35.160779]},"properties":{"id":2413,"name":"Nagoya, Japan - Hoshigaoka","facility":null,"status":"OPEN","group":"open","stalls":8,"kw":72,"opened":"2020-07-03","x":-1.396,"y":-92.609,"stalls_est":false}},{"type":"Feature","geometry":{"type":"Point","coordinates":[139.76922,35.679264]},"properties":{"id":6022,"name":"Tokyo, Japan - Yaesu","facility":null,"status":"OPEN","group":"open","stalls":4,"kw":250,"opened":"2023-03-18","x":249.294,"y":-31.846,"stalls_est":false}},{"type":"Feature","geometry":{"type":"Point","coordinates":[135.461799,34.757218]},"properties":{"id":2342,"name":"Osaka, Japan - Toyonaka","facility":null,"status":"OPEN","group":"open","stalls":8,"kw":150,"opened":"2020-03-31","x":-140.095,"y":-136.036,"stalls_est":false}},{"type":"Feature","geometry":{"type":"Point","coordinates":[139.803477,35.642064]},"properties":{"id":2123,"name":"Tokyo, Japan - Tokyo Bay","facility":null,"status":"OPEN","group":"open","stalls":8,"kw":72,"opened":"2019-10-02","x":252.496,"y":-35.861,"stalls_est":false}},{"type":"Feature","geometry":{"type":"Point","coordinates":[139.740384,35.668171]},"properties":{"id":3261,"name":"Tokyo, Japan - Akasaka","facility":null,"status":"OPEN","group":"open","stalls":4,"kw":125,"opened":"2021-03-22","x":246.734,"y":-33.143,"stalls_est":false}},{"type":"Feature","geometry":{"type":"Point","coordinates":[136.9115,35.120756]},"properties":{"id":6957,"name":"Nagoya, Japan - Jingu","facility":null,"status":"OPEN","group":"open","stalls":4,"kw":250,"opened":"2023-09-29","x":-8.024,"y":-97.022,"stalls_est":false}},{"type":"Feature","geometry":{"type":"Point","coordinates":[139.752783,35.670848]},"properties":{"id":3777,"name":"Tokyo, Japan - Hibiya","facility":null,"status":"OPEN","group":"open","stalls":4,"kw":250,"opened":"2021-10-21","x":247.841,"y":-32.816,"stalls_est":false}},{"type":"Feature","geometry":{"type":"Point","coordinates":[135.51026,34.70162]},"properties":{"id":4373,"name":"Osaka, Japan - Omigachi","facility":null,"status":"OPEN","group":"open","stalls":6,"kw":250,"opened":"2022-06-24","x":-135.776,"y":-142.24,"stalls_est":false}},{"type":"Feature","geometry":{"type":"Point","coordinates":[139.614944,35.890806]},"properties":{"id":6393,"name":"Saitama, Japan - Yono","facility":null,"status":"OPEN","group":"open","stalls":8,"kw":250,"opened":"2023-06-02","x":234.782,"y":-8.895,"stalls_est":false}},{"type":"Feature","geometry":{"type":"Point","coordinates":[139.792432,35.637985]},"properties":{"id":6454,"name":"Tokyo, Japan - Ariake","facility":null,"status":"OPEN","group":"open","stalls":8,"kw":250,"opened":"2023-07-01","x":251.514,"y":-36.339,"stalls_est":false}},{"type":"Feature","geometry":{"type":"Point","coordinates":[130.432383,33.577609]},"properties":{"id":7110,"name":"Fukuoka, Japan - Hakataeki Minami","facility":null,"status":"OPEN","group":"open","stalls":4,"kw":250,"opened":"2023-10-31","x":-606.515,"y":-246.874,"stalls_est":false}},{"type":"Feature","geometry":{"type":"Point","coordinates":[139.525019,35.663053]},"properties":{"id":5046,"name":"Tokyo, Japan - Chofu","facility":null,"status":"OPEN","group":"open","stalls":4,"kw":72,"opened":"2022-09-30","x":227.362,"y":-34.232,"stalls_est":false}},{"type":"Feature","geometry":{"type":"Point","coordinates":[135.72866,35.007]},"properties":{"id":4858,"name":"Kyoto, Japan - Shijo","facility":null,"status":"OPEN","group":"open","stalls":6,"kw":250,"opened":"2022-09-16","x":-115.432,"y":-108.825,"stalls_est":false}},{"type":"Feature","geometry":{"type":"Point","coordinates":[135.512975,34.652018]},"properties":{"id":3657,"name":"Osaka, Japan - Tennoji","facility":null,"status":"OPEN","group":"open","stalls":5,"kw":250,"opened":"2021-09-23","x":-135.612,"y":-147.717,"stalls_est":false}},{"type":"Feature","geometry":{"type":"Point","coordinates":[139.78971,35.763609]},"properties":{"id":7154,"name":"Tokyo, Japan - Senju","facility":null,"status":"OPEN","group":"open","stalls":6,"kw":250,"opened":"2023-11-10","x":250.872,"y":-22.489,"stalls_est":false}},{"type":"Feature","geometry":{"type":"Point","coordinates":[135.197883,34.69152]},"properties":{"id":7331,"name":"Kobe, Japan - Sannomiya","facility":null,"status":"OPEN","group":"open","stalls":6,"kw":250,"opened":"2023-12-20","x":-164.264,"y":-142.873,"stalls_est":false}},{"type":"Feature","geometry":{"type":"Point","coordinates":[139.656517,35.732631]},"properties":{"id":7353,"name":"Tokyo, Japan - Toyotama","facility":null,"status":"OPEN","group":"open","stalls":4,"kw":250,"opened":"2023-12-26","x":238.99,"y":-26.242,"stalls_est":false}},{"type":"Feature","geometry":{"type":"Point","coordinates":[139.729228,35.660371]},"properties":{"id":7712,"name":"Tokyo, Japan - Roppongi P2","facility":null,"status":"OPEN","group":"open","stalls":4,"kw":250,"opened":"2024-03-13","x":245.754,"y":-34.032,"stalls_est":false}},{"type":"Feature","geometry":{"type":"Point","coordinates":[139.626014,35.457801]},"properties":{"id":6564,"name":"Yokohama, Japan - MinatoMirai","facility":null,"status":"OPEN","group":"open","stalls":6,"kw":250,"opened":"2023-07-10","x":237.065,"y":-56.633,"stalls_est":false}},{"type":"Feature","geometry":{"type":"Point","coordinates":[135.52243,34.665564]},"properties":{"id":6710,"name":"Osaka, Japan - Uehonmachi","facility":null,"status":"OPEN","group":"open","stalls":8,"kw":250,"opened":"2023-08-06","x":-134.727,"y":-146.236,"stalls_est":false}},{"type":"Feature","geometry":{"type":"Point","coordinates":[139.776917,35.617639]},"properties":{"id":429,"name":"Tokyo, Japan - Odaiba","facility":null,"status":"OPEN","group":"open","stalls":4,"kw":150,"opened":"2014-11-10","x":250.181,"y":-38.624,"stalls_est":false}},{"type":"Feature","geometry":{"type":"Point","coordinates":[141.127986,39.685291]},"properties":{"id":784,"name":"Morioka, Japan","facility":"TSUTAYA","status":"OPEN","group":"open","stalls":6,"kw":130,"opened":"2016-01-14","x":352.786,"y":414.562,"stalls_est":false}},{"type":"Feature","geometry":{"type":"Point","coordinates":[133.769448,34.578345]},"properties":{"id":810,"name":"Kurashiki, Japan","facility":null,"status":"OPEN","group":"open","stalls":4,"kw":138,"opened":"2016-03-18","x":-294.844,"y":-151.989,"stalls_est":false}},{"type":"Feature","geometry":{"type":"Point","coordinates":[138.200388,36.572062]},"properties":{"id":889,"name":"Nagano, Japan","facility":null,"status":"OPEN","group":"open","stalls":4,"kw":150,"opened":"2016-07-16","x":106.859,"y":63.792,"stalls_est":false}},{"type":"Feature","geometry":{"type":"Point","coordinates":[137.748006,34.840437]},"properties":{"id":890,"name":"Hamamatsu, Japan","facility":null,"status":"OPEN","group":"open","stalls":4,"kw":138,"opened":"2016-07-16","x":68.058,"y":-127.698,"stalls_est":false}},{"type":"Feature","geometry":{"type":"Point","coordinates":[139.097401,36.307802]},"properties":{"id":1008,"name":"Takasaki, Japan","facility":null,"status":"OPEN","group":"open","stalls":6,"kw":130,"opened":"2016-12-26","x":187.331,"y":35.987,"stalls_est":false}},{"type":"Feature","geometry":{"type":"Point","coordinates":[130.497193,33.588526]},"properties":{"id":1032,"name":"Fukuoka, Japan","facility":null,"status":"OPEN","group":"open","stalls":6,"kw":138,"opened":"2017-02-14","x":-600.458,"y":-246.073,"stalls_est":false}},{"type":"Feature","geometry":{"type":"Point","coordinates":[139.879029,35.835607]},"properties":{"id":6723,"name":"Misato, Japan","facility":null,"status":"OPEN","group":"open","stalls":6,"kw":250,"opened":"2023-08-06","x":258.666,"y":-14.314,"stalls_est":false}},{"type":"Feature","geometry":{"type":"Point","coordinates":[139.604966,36.295436]},"properties":{"id":1304,"name":"Sano, Japan","facility":"Sano Premium Outlets","status":"OPEN","group":"open","stalls":4,"kw":130,"opened":"2017-09-30","x":232.691,"y":35.718,"stalls_est":false}},{"type":"Feature","geometry":{"type":"Point","coordinates":[138.938584,35.299713]},"properties":{"id":1446,"name":"Gotemba, Japan","facility":null,"status":"OPEN","group":"open","stalls":6,"kw":130,"opened":"2017-12-23","x":175.364,"y":-75.53,"stalls_est":false}},{"type":"Feature","geometry":{"type":"Point","coordinates":[132.404382,34.372844]},"properties":{"id":2291,"name":"Hiroshima, Japan","facility":null,"status":"OPEN","group":"open","stalls":8,"kw":72,"opened":"2020-02-15","x":-420.422,"y":-169.635,"stalls_est":false}},{"type":"Feature","geometry":{"type":"Point","coordinates":[139.924555,35.435631]},"properties":{"id":1719,"name":"Kisarazu, Japan","facility":null,"status":"OPEN","group":"open","stalls":6,"kw":150,"opened":"2018-09-29","x":264.082,"y":-58.309,"stalls_est":false}},{"type":"Feature","geometry":{"type":"Point","coordinates":[135.752512,34.986112]},"properties":{"id":1809,"name":"Kyoto, Japan","facility":null,"status":"OPEN","group":"open","stalls":4,"kw":72,"opened":"2018-12-19","x":-113.296,"y":-111.157,"stalls_est":false}},{"type":"Feature","geometry":{"type":"Point","coordinates":[134.624752,34.201273]},"properties":{"id":2019,"name":"Naruto, Japan","facility":null,"status":"OPEN","group":"open","stalls":8,"kw":130,"opened":"2019-06-27","x":-217.817,"y":-195.844,"stalls_est":false}},{"type":"Feature","geometry":{"type":"Point","coordinates":[131.659776,33.195441]},"properties":{"id":7686,"name":"Ōita, Japan","facility":null,"status":"OPEN","group":"open","stalls":4,"kw":150,"opened":"2024-03-07","x":-495.608,"y":-295.949,"stalls_est":false}},{"type":"Feature","geometry":{"type":"Point","coordinates":[139.735628,35.832459]},"properties":{"id":2608,"name":"Kawaguchi, Japan","facility":null,"status":"OPEN","group":"open","stalls":4,"kw":250,"opened":"2020-12-11","x":245.796,"y":-15.033,"stalls_est":false}},{"type":"Feature","geometry":{"type":"Point","coordinates":[140.837815,38.342928]},"properties":{"id":783,"name":"Sendai, Japan","facility":null,"status":"OPEN","group":"open","stalls":4,"kw":130,"opened":"2016-01-14","x":333.854,"y":265.252,"stalls_est":false}},{"type":"Feature","geometry":{"type":"Point","coordinates":[131.416896,31.895596]},"properties":{"id":6060,"name":"Miyazaki, Japan","facility":null,"status":"OPEN","group":"open","stalls":4,"kw":250,"opened":"2023-03-26","x":-526.363,"y":-438.079,"stalls_est":false}},{"type":"Feature","geometry":{"type":"Point","coordinates":[139.691216,35.770672]},"properties":{"id":6059,"name":"Tokyo, Japan - Itabashi Maeno","facility":null,"status":"OPEN","group":"open","stalls":4,"kw":250,"opened":"2023-03-26","x":241.995,"y":-21.96,"stalls_est":false}},{"type":"Feature","geometry":{"type":"Point","coordinates":[140.736469,41.830017]},"properties":{"id":3499,"name":"Hakodate, Japan","facility":"FamilyMart","status":"OPEN","group":"open","stalls":4,"kw":250,"opened":"2021-07-01","x":310.218,"y":650.725,"stalls_est":false}},{"type":"Feature","geometry":{"type":"Point","coordinates":[130.534073,31.527162]},"properties":{"id":6082,"name":"Kagoshima, Japan","facility":null,"status":"OPEN","group":"open","stalls":6,"kw":250,"opened":"2023-03-28","x":-612.185,"y":-473.581,"stalls_est":false}},{"type":"Feature","geometry":{"type":"Point","coordinates":[139.385688,35.944331]},"properties":{"id":6793,"name":"Tsurugashima, Japan","facility":null,"status":"OPEN","group":"open","stalls":4,"kw":250,"opened":"2023-08-25","x":214.058,"y":-3.519,"stalls_est":false}},{"type":"Feature","geometry":{"type":"Point","coordinates":[136.157611,34.756146]},"properties":{"id":3478,"name":"Iga, Japan","facility":null,"status":"OPEN","group":"open","stalls":4,"kw":250,"opened":"2021-06-25","x":-76.726,"y":-136.93,"stalls_est":false}},{"type":"Feature","geometry":{"type":"Point","coordinates":[130.781127,32.790292]},"properties":{"id":3631,"name":"Kumamoto, Japan","facility":null,"status":"OPEN","group":"open","stalls":4,"kw":250,"opened":"2021-09-11","x":-579.908,"y":-335.765,"stalls_est":false}},{"type":"Feature","geometry":{"type":"Point","coordinates":[135.969208,34.9785]},"properties":{"id":3700,"name":"Otsu, Japan","facility":null,"status":"OPEN","group":"open","stalls":4,"kw":250,"opened":"2021-09-25","x":-93.625,"y":-112.228,"stalls_est":false}},{"type":"Feature","geometry":{"type":"Point","coordinates":[138.381732,34.967395]},"properties":{"id":6108,"name":"Shizuoka, Japan","facility":null,"status":"OPEN","group":"open","stalls":6,"kw":250,"opened":"2023-04-05","x":125.516,"y":-113.058,"stalls_est":false}},{"type":"Feature","geometry":{"type":"Point","coordinates":[139.235696,35.35612]},"properties":{"id":6937,"name":"Hadano, Japan","facility":null,"status":"OPEN","group":"open","stalls":4,"kw":250,"opened":"2023-09-26","x":202.094,"y":-68.731,"stalls_est":false}},{"type":"Feature","geometry":{"type":"Point","coordinates":[135.371387,34.448579]},"properties":{"id":6908,"name":"Kaizuka, Japan","facility":null,"status":"OPEN","group":"open","stalls":3,"kw":250,"opened":"2023-09-21","x":-148.899,"y":-169.96,"stalls_est":false}},{"type":"Feature","geometry":{"type":"Point","coordinates":[139.934066,35.817911]},"properties":{"id":3498,"name":"Matsudo, Japan","facility":null,"status":"OPEN","group":"open","stalls":4,"kw":250,"opened":"2021-07-01","x":263.669,"y":-16.118,"stalls_est":false}},{"type":"Feature","geometry":{"type":"Point","coordinates":[130.405462,33.595642]},"properties":{"id":6789,"name":"Fukuoka, Japan - Nakasu Kawabata","facility":null,"status":"OPEN","group":"open","stalls":3,"kw":72,"opened":"2023-08-23","x":-608.863,"y":-244.719,"stalls_est":false}},{"type":"Feature","geometry":{"type":"Point","coordinates":[140.045423,35.651334]},"properties":{"id":6955,"name":"Chiba, Japan - Kaihin Makuhari","facility":null,"status":"OPEN","group":"open","stalls":6,"kw":250,"opened":"2023-09-29","x":274.248,"y":-34.183,"stalls_est":false}},{"type":"Feature","geometry":{"type":"Point","coordinates":[137.764617,34.739214]},"properties":{"id":6861,"name":"Hamamatsu, Japan - Ichino","facility":null,"status":"OPEN","group":"open","stalls":6,"kw":250,"opened":"2023-09-06","x":69.657,"y":-138.857,"stalls_est":false}},{"type":"Feature","geometry":{"type":"Point","coordinates":[139.699613,35.649086]},"properties":{"id":3532,"name":"Tokyo, Japan - Daikanyama","facility":null,"status":"OPEN","group":"open","stalls":4,"kw":250,"opened":"2021-07-16","x":243.122,"y":-35.351,"stalls_est":false}},{"type":"Feature","geometry":{"type":"Point","coordinates":[139.525469,35.545422]},"properties":{"id":6896,"name":"Yokohama, Japan - Aoba","facility":null,"status":"OPEN","group":"open","stalls":6,"kw":250,"opened":"2023-09-17","x":227.74,"y":-47.207,"stalls_est":false}},{"type":"Feature","geometry":{"type":"Point","coordinates":[141.358454,43.061938]},"properties":{"id":4023,"name":"Sapporo-Odori, Japan","facility":null,"status":"OPEN","group":"open","stalls":4,"kw":250,"opened":"2022-02-04","x":355.692,"y":789.702,"stalls_est":false}},{"type":"Feature","geometry":{"type":"Point","coordinates":[140.311347,38.192838]},"properties":{"id":3968,"name":"Yamagata, Japan","facility":"Cybele","status":"OPEN","group":"open","stalls":4,"kw":250,"opened":"2022-01-15","x":288.639,"y":246.997,"stalls_est":false}},{"type":"Feature","geometry":{"type":"Point","coordinates":[139.060503,37.878928]},"properties":{"id":3723,"name":"Niigata, Japan","facility":"Niigata Prefecture Sports Park","status":"OPEN","group":"open","stalls":4,"kw":250,"opened":"2021-10-01","x":180.363,"y":209.322,"stalls_est":false}},{"type":"Feature","geometry":{"type":"Point","coordinates":[140.332741,37.395715]},"properties":{"id":3951,"name":"Koriyama, Japan","facility":"Fruit Peaks","status":"OPEN","group":"open","stalls":4,"kw":250,"opened":"2021-12-31","x":293.518,"y":159.08,"stalls_est":false}},{"type":"Feature","geometry":{"type":"Point","coordinates":[138.632764,36.339497]},"properties":{"id":6956,"name":"Karuizawa, Japan","facility":"Karuizawa Prince Shopping Plaza","status":"OPEN","group":"open","stalls":4,"kw":250,"opened":"2023-09-29","x":145.777,"y":38.689,"stalls_est":false}},{"type":"Feature","geometry":{"type":"Point","coordinates":[134.227914,35.497025]},"properties":{"id":3736,"name":"Tottori, Japan","facility":null,"status":"OPEN","group":"open","stalls":4,"kw":250,"opened":"2021-10-03","x":-250.125,"y":-51.94,"stalls_est":false}},{"type":"Feature","geometry":{"type":"Point","coordinates":[140.061221,36.058524]},"properties":{"id":3887,"name":"Tsukuba, Japan","facility":null,"status":"OPEN","group":"open","stalls":4,"kw":250,"opened":"2021-12-10","x":274.256,"y":10.773,"stalls_est":false}},{"type":"Feature","geometry":{"type":"Point","coordinates":[136.250467,36.086031]},"properties":{"id":4042,"name":"Fukui, Japan","facility":null,"status":"OPEN","group":"open","stalls":4,"kw":250,"opened":"2022-02-12","x":-67.138,"y":9.752,"stalls_est":false}},{"type":"Feature","geometry":{"type":"Point","coordinates":[133.554967,33.571591]},"properties":{"id":3977,"name":"Kochi, Japan","facility":null,"status":"OPEN","group":"open","stalls":4,"kw":72,"opened":"2022-01-20","x":-318.345,"y":-262.38,"stalls_est":false}},{"type":"Feature","geometry":{"type":"Point","coordinates":[136.624141,36.599028]},"properties":{"id":3929,"name":"Kanazawa, Japan","facility":null,"status":"OPEN","group":"open","stalls":4,"kw":250,"opened":"2021-12-24","x":-33.448,"y":66.174,"stalls_est":false}},{"type":"Feature","geometry":{"type":"Point","coordinates":[133.920872,34.663067]},"properties":{"id":6221,"name":"Okayama, Japan","facility":null,"status":"OPEN","group":"open","stalls":4,"kw":250,"opened":"2023-04-28","x":-280.733,"y":-143.092,"stalls_est":false}},{"type":"Feature","geometry":{"type":"Point","coordinates":[139.607375,35.893598]},"properties":{"id":6954,"name":"Saitama, Japan - Omiya","facility":null,"status":"OPEN","group":"open","stalls":4,"kw":150,"opened":"2023-09-29","x":234.094,"y":-8.605,"stalls_est":false}},{"type":"Feature","geometry":{"type":"Point","coordinates":[136.941067,35.057015]},"properties":{"id":7041,"name":"Nagoya, Japan - Minami Odaka","facility":null,"status":"OPEN","group":"open","stalls":4,"kw":250,"opened":"2023-10-14","x":-5.348,"y":-104.058,"stalls_est":false}},{"type":"Feature","geometry":{"type":"Point","coordinates":[140.762818,40.786212]},"properties":{"id":7281,"name":"Aomori, Japan","facility":"FamilyMart","status":"OPEN","group":"open","stalls":3,"kw":250,"opened":"2023-12-15","x":316.881,"y":535.111,"stalls_est":false}},{"type":"Feature","geometry":{"type":"Point","coordinates":[140.589096,36.407059]},"properties":{"id":6453,"name":"Hitachinaka, Japan","facility":"Joyful Honda Newport","status":"OPEN","group":"open","stalls":6,"kw":250,"opened":"2023-06-14","x":320.111,"y":50.827,"stalls_est":false}},{"type":"Feature","geometry":{"type":"Point","coordinates":[137.20812,36.692628]},"properties":{"id":4147,"name":"Toyama, Japan","facility":null,"status":"OPEN","group":"open","stalls":4,"kw":72,"opened":"2022-03-28","x":18.499,"y":76.459,"stalls_est":false}},{"type":"Feature","geometry":{"type":"Point","coordinates":[132.77972,33.809435]},"properties":{"id":5500,"name":"Matsuyama, Japan","facility":null,"status":"OPEN","group":"open","stalls":4,"kw":72,"opened":"2022-10-17","x":-388.804,"y":-233.323,"stalls_est":false}},{"type":"Feature","geometry":{"type":"Point","coordinates":[139.537491,35.425628]},"properties":{"id":336,"name":"Yokohama, Japan","facility":"Tesla Center","status":"OPEN","group":"open","stalls":4,"kw":150,"opened":"2014-09-09","x":229.168,"y":-60.394,"stalls_est":false}},{"type":"Feature","geometry":{"type":"Point","coordinates":[139.847523,36.632073]},"properties":{"id":7107,"name":"Utsunomiya, Japan","facility":null,"status":"OPEN","group":"open","stalls":6,"kw":250,"opened":"2023-10-30","x":253.264,"y":73.462,"stalls_est":false}},{"type":"Feature","geometry":{"type":"Point","coordinates":[136.677907,35.028329]},"properties":{"id":7414,"name":"Mie Kawagoe, Japan","facility":null,"status":"OPEN","group":"open","stalls":6,"kw":250,"opened":"2024-01-10","x":-29.238,"y":-107.177,"stalls_est":false}},{"type":"Feature","geometry":{"type":"Point","coordinates":[137.960289,36.174435]},"properties":{"id":7282,"name":"Matsumoto, Japan","facility":null,"status":"OPEN","group":"open","stalls":4,"kw":250,"opened":"2023-12-15","x":85.919,"y":19.674,"stalls_est":false}},{"type":"Feature","geometry":{"type":"Point","coordinates":[139.69461,35.534495]},"properties":{"id":4374,"name":"Kawasaki, Japan","facility":null,"status":"OPEN","group":"open","stalls":3,"kw":250,"opened":"2022-06-24","x":243.022,"y":-48.003,"stalls_est":false}},{"type":"Feature","geometry":{"type":"Point","coordinates":[134.061538,34.309423]},"properties":{"id":4418,"name":"Takamatsu, Japan","facility":null,"status":"OPEN","group":"open","stalls":4,"kw":250,"opened":"2022-07-06","x":-269.09,"y":-182.502,"stalls_est":false}},{"type":"Feature","geometry":{"type":"Point","coordinates":[139.350071,35.589132]},"properties":{"id":6448,"name":"Hashimoto, Japan","facility":null,"status":"OPEN","group":"open","stalls":4,"kw":250,"opened":"2023-06-13","x":211.809,"y":-42.782,"stalls_est":false}},{"type":"Feature","geometry":{"type":"Point","coordinates":[138.547736,35.652801]},"properties":{"id":1472,"name":"Kofu, Japan","facility":null,"status":"OPEN","group":"open","stalls":6,"kw":130,"opened":"2018-01-27","x":139.392,"y":-37.205,"stalls_est":false}},{"type":"Feature","geometry":{"type":"Point","coordinates":[136.691785,35.303584]},"properties":{"id":972,"name":"Gifu Hashima, Japan","facility":null,"status":"OPEN","group":"open","stalls":4,"kw":138,"opened":"2016-11-16","x":-27.882,"y":-76.806,"stalls_est":false}},{"type":"Feature","geometry":{"type":"Point","coordinates":[139.445481,35.337682]},"properties":{"id":3300,"name":"Shonan, Japan","facility":null,"status":"OPEN","group":"open","stalls":2,"kw":125,"opened":"2021-04-06","x":221.104,"y":-70.308,"stalls_est":false}},{"type":"Feature","geometry":{"type":"Point","coordinates":[135.558259,34.809105]},"properties":{"id":7243,"name":"Ibaraki, Japan","facility":null,"status":"OPEN","group":"open","stalls":6,"kw":250,"opened":"2023-12-01","x":-131.226,"y":-130.445,"stalls_est":false}},{"type":"Feature","geometry":{"type":"Point","coordinates":[135.761431,34.506752]},"properties":{"id":6341,"name":"Kashihara, Japan","facility":null,"status":"OPEN","group":"open","stalls":4,"kw":250,"opened":"2023-05-23","x":-113.159,"y":-164.066,"stalls_est":false}},{"type":"Feature","geometry":{"type":"Point","coordinates":[130.810591,33.874445]},"properties":{"id":7323,"name":"Kitakyushu, Japan","facility":null,"status":"OPEN","group":"open","stalls":6,"kw":250,"opened":"2023-12-19","x":-569.553,"y":-216.458,"stalls_est":false}},{"type":"Feature","geometry":{"type":"Point","coordinates":[139.693364,35.688105]},"properties":{"id":5045,"name":"Tokyo, Japan - Shinjuku","facility":null,"status":"OPEN","group":"open","stalls":4,"kw":250,"opened":"2022-09-30","x":242.44,"y":-31.062,"stalls_est":false}},{"type":"Feature","geometry":{"type":"Point","coordinates":[138.302483,34.880012]},"properties":{"id":5652,"name":"Yaizu, Japan","facility":null,"status":"OPEN","group":"open","stalls":6,"kw":250,"opened":"2022-12-13","x":118.447,"y":-122.8,"stalls_est":false}},{"type":"Feature","geometry":{"type":"Point","coordinates":[140.013241,37.040162]},"properties":{"id":7622,"name":"Nasu, Japan","facility":null,"status":"OPEN","group":"open","stalls":6,"kw":250,"opened":"2024-03-18","x":266.604,"y":118.929,"stalls_est":false}},{"type":"Feature","geometry":{"type":"Point","coordinates":[139.35816,35.422859]},"properties":{"id":5952,"name":"Atsugi, Japan","facility":null,"status":"OPEN","group":"open","stalls":8,"kw":250,"opened":"2023-03-02","x":212.983,"y":-61.107,"stalls_est":false}},{"type":"Feature","geometry":{"type":"Point","coordinates":[136.942448,35.239016]},"properties":{"id":5737,"name":"Kasugai, Japan","facility":null,"status":"OPEN","group":"open","stalls":4,"kw":250,"opened":"2022-12-29","x":-5.21,"y":-83.974,"stalls_est":false}},{"type":"Feature","geometry":{"type":"Point","coordinates":[137.125103,35.078648]},"properties":{"id":6514,"name":"Toyota, Japan","facility":null,"status":"OPEN","group":"open","stalls":8,"kw":250,"opened":"2023-06-29","x":11.349,"y":-101.665,"stalls_est":false}},{"type":"Feature","geometry":{"type":"Point","coordinates":[137.816572,35.499941]},"properties":{"id":6516,"name":"Iida, Japan","facility":null,"status":"OPEN","group":"open","stalls":4,"kw":250,"opened":"2023-06-29","x":73.686,"y":-54.873,"stalls_est":false}},{"type":"Feature","geometry":{"type":"Point","coordinates":[139.15185,35.337778]},"properties":{"id":5967,"name":"Oi Matsuda, Japan","facility":null,"status":"OPEN","group":"open","stalls":6,"kw":250,"opened":"2023-03-02","x":194.56,"y":-70.925,"stalls_est":false}},{"type":"Feature","geometry":{"type":"Point","coordinates":[138.617409,35.162258]},"properties":{"id":5915,"name":"Fuji River, Japan","facility":null,"status":"OPEN","group":"open","stalls":4,"kw":250,"opened":"2023-02-16","x":146.566,"y":-91.227,"stalls_est":false}},{"type":"Feature","geometry":{"type":"Point","coordinates":[135.645188,34.858101]},"properties":{"id":6515,"name":"Takatsuki, Japan","facility":null,"status":"OPEN","group":"open","stalls":8,"kw":250,"opened":"2023-06-29","x":-123.239,"y":-125.153,"stalls_est":false}},{"type":"Feature","geometry":{"type":"Point","coordinates":[136.514477,34.460963]},"properties":{"id":6488,"name":"Taki, Japan","facility":null,"status":"OPEN","group":"open","stalls":4,"kw":250,"opened":"2023-06-23","x":-44.385,"y":-169.729,"stalls_est":false}},{"type":"Feature","geometry":{"type":"Point","coordinates":[139.531962,35.810705]},"properties":{"id":6513,"name":"Tokorozawa, Japan","facility":null,"status":"OPEN","group":"open","stalls":4,"kw":250,"opened":"2023-06-29","x":227.563,"y":-17.928,"stalls_est":false}},{"type":"Feature","geometry":{"type":"Point","coordinates":[140.118422,35.655602]},"properties":{"id":5808,"name":"Chiba, Japan - Inage","facility":null,"status":"OPEN","group":"open","stalls":8,"kw":250,"opened":"2023-01-17","x":280.804,"y":-33.504,"stalls_est":false}},{"type":"Feature","geometry":{"type":"Point","coordinates":[136.879426,35.179302]},"properties":{"id":7747,"name":"Nagoya, Japan - Noritake","facility":null,"status":"OPEN","group":"open","stalls":8,"kw":250,"opened":"2024-03-18","x":-10.924,"y":-90.558,"stalls_est":false}},{"type":"Feature","geometry":{"type":"Point","coordinates":[135.383373,34.785125]},"properties":{"id":5946,"name":"Itami, Japan - Konyo","facility":null,"status":"OPEN","group":"open","stalls":8,"kw":250,"opened":"2023-02-28","x":-147.186,"y":-132.841,"stalls_est":false}},{"type":"Feature","geometry":{"type":"Point","coordinates":[135.217935,34.835567]},"properties":{"id":5666,"name":"Kobe, Japan - Kita","facility":null,"status":"OPEN","group":"open","stalls":6,"kw":250,"opened":"2022-12-16","x":-162.145,"y":-127.012,"stalls_est":false}},{"type":"Feature","geometry":{"type":"Point","coordinates":[139.619687,35.636614]},"properties":{"id":5831,"name":"Tokyo, Japan - Setagaya Kinuta","facility":null,"status":"OPEN","group":"open","stalls":6,"kw":250,"opened":"2023-01-24","x":235.963,"y":-36.923,"stalls_est":false}}]}